,Unnamed: 0,Unnamed: 0.1,Earthquake Date (UT),Time (UT),ID,Mag Type,Magnitude,Depth (km),R?,Epic. Dist.(km),PGA Vertical (mm/s/s),PGA Horiz_1 (mm/s/s),PGA Horiz_2 (mm/s/s),PGA Vertical (%g),PGA Horiz_1 (%g),PGA Horiz_2 (%g),Accelerogram ID,Site Code,Name,Site Latitude,Site Longitude,Site Elevation (m),EQ_lat,EQ_lon,max_percent,max pga,pg_bracket,pga_size,color
588,588,37,2015-03-07,01:47:23,2015p175877,M,4.59,271.0,,277,5.0,6.8,11.9,0.0512,0.0695,0.121,20150307_014848_LRSS_20,LRSS,Randwick School,-41.2294301,174.90424587,0.0,-38.74099971,175.0934549,0.121,0.00121,0.002,1,#989898
589,589,38,2015-03-07,01:47:23,2015p175877,M,4.59,271.0,,277,8.7,14.7,7.5,0.0886,0.1495,0.0762,20150307_014848_LIRS_20,LIRS,Lower Hutt IRL,-41.23231,174.91929,0.0,-38.74099971,175.0934549,0.1495,0.001495,0.002,1,#989898
590,590,39,2015-03-07,01:47:23,2015p175877,M,4.59,271.0,,277,2.6,6.1,6.1,0.0264,0.0622,0.0626,20150307_014848_INSS_20,INSS,Lower Hutt GNS Nuclear Sciences,-41.233516778,174.921116168,0.0,-38.74099971,175.0934549,0.0626,0.000626,0.002,1,#989898
591,591,40,2015-03-07,01:47:23,2015p175877,M,4.59,271.0,,278,2.1,4.1,4.3,0.0211,0.0417,0.0441,20150307_014849_NEWS_20,NEWS,Newlands,-41.23204,174.82178,218.0,-38.74099971,175.0934549,0.0441,0.000441,0.002,1,#989898
592,592,41,2015-03-07,01:47:23,2015p175877,M,4.59,271.0,,278,2.5,5.9,4.8,0.0257,0.0597,0.0487,20150307_014814_MKBS_20,MKBS,Makara Bunker,-41.2259,174.6981,231.0,-38.74099971,175.0934549,0.0597,0.000597,0.002,1,#989898
593,593,42,2015-03-07,01:47:23,2015p175877,M,4.59,271.0,,279,2.5,6.2,5.9,0.0258,0.0637,0.06,20150307_014847_PHHS_20,PHHS,Point Howard,-41.25209,174.904297,41.0,-38.74099971,175.0934549,0.0637,0.0006370000000000001,0.002,1,#989898
594,594,43,2015-03-07,01:47:23,2015p175877,M,4.59,271.0,,280,9.8,17.3,13.8,0.0995,0.1765,0.1405,20150307_014849_WDAS_20,WDAS,Wainuiomata Bush Fire Force,-41.257397389,174.948466416,90.0,-38.74099971,175.0934549,0.1765,0.0017649999999999999,0.002,1,#989898
595,595,44,2015-03-07,01:47:23,2015p175877,M,4.59,271.0,,280,3.9,9.1,7.8,0.0393,0.0928,0.08,20150307_014814_SOMS_20,SOMS,Somes Island,-41.25746,174.865,48.0,-38.74099971,175.0934549,0.0928,0.0009279999999999999,0.002,1,#989898
596,596,45,2015-03-07,01:47:23,2015p175877,M,4.59,271.0,,282,5.6,12.7,11.7,0.0575,0.1297,0.1192,20150307_014814_MKVS_20,MKVS,Makara Village,-41.26542095,174.70552447,0.0,-38.74099971,175.0934549,0.1297,0.0012970000000000002,0.002,1,#989898
597,597,46,2015-03-07,01:47:23,2015p175877,M,4.59,271.0,,283,3.3,6.9,5.5,0.0336,0.0706,0.0556,20150307_014851_WEMS_20,WEMS,Wellington Emergency Management Office,-41.27428738,174.779264202,31.0,-38.74099971,175.0934549,0.0706,0.0007059999999999999,0.002,1,#989898
598,598,47,2015-03-07,01:47:23,2015p175877,M,4.59,271.0,,283,4.7,9.1,11.8,0.0477,0.0929,0.1202,20150307_014850_BOWS_20,BOWS,Bowen St Turnbull House Wellington,-41.279193,174.776323,0.0,-38.74099971,175.0934549,0.1202,0.001202,0.002,1,#989898
599,599,48,2015-03-07,01:47:23,2015p175877,M,4.59,271.0,,283,4.3,8.2,14.0,0.0435,0.0839,0.1426,20150307_014850_VUWS_20,VUWS,Victoria University Law School,-41.279854,174.778399,0.0,-38.74099971,175.0934549,0.1426,0.001426,0.002,1,#989898
600,600,49,2015-03-07,01:47:23,2015p175877,M,4.59,271.0,,283,4.3,6.4,6.5,0.0435,0.0653,0.0661,20150307_014815_EBPS_20,EBPS,Eastbourne Police Station,-41.289428012,174.900235673,0.0,-38.74099971,175.0934549,0.0661,0.000661,0.002,1,#989898
601,601,50,2015-03-07,01:47:23,2015p175877,M,4.59,271.0,,284,2.6,6.3,5.8,0.0266,0.0644,0.0591,20150307_014814_WEL_20,WEL,Wellington,-41.284047578,174.768184021,138.0,-38.74099971,175.0934549,0.0644,0.000644,0.002,1,#989898
602,602,51,2015-03-07,01:47:23,2015p175877,M,4.59,271.0,,284,5.5,18.8,6.7,0.0563,0.1919,0.0681,20150307_014850_WNKS_20,WNKS,Wellington Karori Normal School,-41.284817534,174.742053687,0.0,-38.74099971,175.0934549,0.1919,0.001919,0.002,1,#989898
603,603,52,2015-03-07,01:47:23,2015p175877,M,4.59,271.0,,284,5.4,11.2,11.1,0.0552,0.1145,0.1128,20150307_014851_FKPS_20,FKPS,Wellington Frank Kitts Park,-41.287947693,174.778764139,5.0,-38.74099971,175.0934549,0.1145,0.001145,0.002,1,#989898
604,604,53,2015-03-07,01:47:23,2015p175877,M,4.59,271.0,,284,3.6,5.5,8.5,0.037,0.0557,0.0866,20150307_014851_TEPS_20,TEPS,Wellington Te Papa Museum,-41.290587759,174.781064157,111.0,-38.74099971,175.0934549,0.0866,0.000866,0.002,1,#989898
605,605,54,2015-03-07,01:47:23,2015p175877,M,4.59,271.0,,285,3.2,9.0,7.3,0.0325,0.0918,0.0747,20150307_014844_TRTS_20,TRTS,Torrens Terrace Wellington,-41.2987,174.7739,0.0,-38.74099971,175.0934549,0.0918,0.0009180000000000001,0.002,1,#989898
606,606,55,2015-03-07,01:47:23,2015p175877,M,4.59,271.0,,288,5.0,9.5,6.1,0.0507,0.0973,0.0622,20150307_014850_SEAS_20,SEAS,Seatoun School Wellington,-41.326447,174.837638,0.0,-38.74099971,175.0934549,0.0973,0.000973,0.002,1,#989898
607,607,0,2015-03-13,04:58:46,2015p192452,M,4.32,34.2,,65,51.2,72.4,83.7,0.5222,0.7387,0.8538,20150313_045859_FXBS_20,FXBS,Foxton Beach School,-40.46136017,175.22603312,0.0,-40.45683111,174.4586127,0.8538,0.008538,0.002 - 0.05,2,#eff3ff
608,608,1,2015-03-13,04:58:46,2015p192452,M,4.32,34.2,,65,35.5,26.2,24.0,0.3621,0.2672,0.2445,20150313_045908_THOB_21,THOB,Te Horo House,-40.789402441,175.092971338,0.0,-40.45683111,174.4586127,0.3621,0.0036209999999999997,0.002 - 0.05,2,#eff3ff
609,609,2,2015-03-13,04:58:46,2015p192452,M,4.32,34.2,,69,20.0,19.5,21.3,0.2037,0.199,0.2169,20150313_045908_PAPS_20,PAPS,Paraparaumu Primary School,-40.914319724,175.004958529,9.0,-40.45683111,174.4586127,0.2169,0.002169,0.002 - 0.05,2,#eff3ff
610,610,3,2015-03-13,04:58:46,2015p192452,M,4.32,34.2,,77,21.7,20.3,21.3,0.2209,0.2067,0.2171,20150313_045903_WCDS_20,WCDS,Wanganui Civil Defence Store,-39.933638357,175.047992977,9.0,-40.45683111,174.4586127,0.2209,0.002209,0.002 - 0.05,2,#eff3ff
611,611,4,2015-03-13,04:58:46,2015p192452,M,4.32,34.2,,81,53.1,23.5,30.3,0.5419,0.2398,0.3094,20150313_045901_POKS_20,POKS,Katoa Kindergarten,-41.12495,174.83151,0.0,-40.45683111,174.4586127,0.5419,0.005419,0.002 - 0.05,2,#eff3ff
612,612,5,2015-03-13,04:58:46,2015p192452,M,4.32,34.2,,81,5.8,5.9,7.3,0.0594,0.0598,0.0743,20150313_045904_PWES_20,PWES,Porirua West,-41.12746,174.82586,9999.0,-40.45683111,174.4586127,0.0743,0.0007430000000000001,0.002,1,#989898
613,613,6,2015-03-13,04:58:46,2015p192452,M,4.32,34.2,,88,5.0,7.9,12.9,0.0508,0.0801,0.1318,20150313_045903_MKBS_20,MKBS,Makara Bunker,-41.2259,174.6981,231.0,-40.45683111,174.4586127,0.1318,0.001318,0.002,1,#989898
614,614,7,2015-03-13,04:58:46,2015p192452,M,4.32,34.2,,89,7.0,11.4,6.6,0.0717,0.1162,0.0671,20150313_045905_HSSS_20,HSSS,Lower Hutt Haywards Substation,-41.151935054,174.981477266,0.0,-40.45683111,174.4586127,0.1162,0.001162,0.002,1,#989898
615,615,8,2015-03-13,04:58:46,2015p192452,M,4.32,34.2,,89,9.3,10.4,7.4,0.0949,0.1056,0.0758,20150313_045905_TOTS_20,TOTS,Totara Park Upper Hutt,-41.10492,175.08539,0.0,-40.45683111,174.4586127,0.1056,0.001056,0.002,1,#989898
616,616,9,2015-03-13,04:58:46,2015p192452,M,4.32,34.2,,90,9.2,20.5,16.2,0.0935,0.2092,0.1651,20150313_045903_WAZ_20,WAZ,Wanganui,-39.754644424,174.985532904,382.0,-40.45683111,174.4586127,0.2092,0.002092,0.002 - 0.05,2,#eff3ff
617,617,10,2015-03-13,04:58:46,2015p192452,M,4.32,34.2,,91,17.9,9.1,9.5,0.1823,0.0925,0.0973,20150313_045903_TAIS_20,TAIS,Taita Central School,-41.18038403,174.954771915,0.0,-40.45683111,174.4586127,0.1823,0.001823,0.002,1,#989898
618,618,11,2015-03-13,04:58:46,2015p192452,M,4.32,34.2,,91,12.4,9.9,9.0,0.1263,0.1014,0.092,20150313_045903_BMTS_20,BMTS,Belmont,-41.191372,174.92603,84.0,-40.45683111,174.4586127,0.1263,0.001263,0.002,1,#989898
619,619,12,2015-03-13,04:58:46,2015p192452,M,4.32,34.2,,91,3.7,4.2,3.2,0.0377,0.0427,0.0328,20150313_045905_NEWS_20,NEWS,Newlands,-41.23204,174.82178,218.0,-40.45683111,174.4586127,0.0427,0.000427,0.002,1,#989898
620,620,13,2015-03-13,04:58:46,2015p192452,M,4.32,34.2,,92,7.6,5.7,6.4,0.0774,0.0577,0.0652,20150313_045904_PTOS_20,PTOS,Petone Overbridge,-41.222973,174.860302,9999.0,-40.45683111,174.4586127,0.0774,0.000774,0.002,1,#989898
621,621,14,2015-03-13,04:58:46,2015p192452,M,4.32,34.2,,92,11.7,11.1,8.4,0.1189,0.1132,0.0852,20150313_045910_LNBS_20,LNBS,Naenae Bowling Club,-41.20498,174.9266,0.0,-40.45683111,174.4586127,0.1189,0.001189,0.002,1,#989898
622,622,15,2015-03-13,04:58:46,2015p192452,M,4.32,34.2,,92,12.2,11.9,13.8,0.1246,0.1218,0.1411,20150313_045904_MKVS_20,MKVS,Makara Village,-41.26542095,174.70552447,0.0,-40.45683111,174.4586127,0.1411,0.001411,0.002,1,#989898
623,623,16,2015-03-13,04:58:46,2015p192452,M,4.32,34.2,,92,7.6,8.9,7.2,0.078,0.0908,0.0732,20150313_045947_PVCS_20,PVCS,Petone Victoria Street,-41.22474608,174.87391737,0.0,-40.45683111,174.4586127,0.0908,0.0009080000000000001,0.002,1,#989898
624,624,17,2015-03-13,04:58:46,2015p192452,M,4.32,34.2,,92,7.7,5.0,9.1,0.0782,0.0508,0.0923,20150313_045915_PGMS_20,PGMS,Petone Municipal Building,-41.224506474,174.879435677,0.0,-40.45683111,174.4586127,0.0923,0.0009229999999999999,0.002,1,#989898
625,625,18,2015-03-13,04:58:46,2015p192452,M,4.32,34.2,,93,5.8,5.3,6.1,0.0588,0.054,0.0624,20150313_045903_FAIS_20,FAIS,Fairfield,-41.2074,174.9401,9999.0,-40.45683111,174.4586127,0.0624,0.000624,0.002,1,#989898
626,626,19,2015-03-13,04:58:46,2015p192452,M,4.32,34.2,,93,9.9,21.0,14.0,0.101,0.2136,0.1423,20150313_045904_NBSS_20,NBSS,St Bernadette's School,-41.202272,174.953755,0.0,-40.45683111,174.4586127,0.2136,0.0021360000000000003,0.002 - 0.05,2,#eff3ff
627,627,20,2015-03-13,04:58:46,2015p192452,M,4.32,34.2,,94,7.6,4.3,7.9,0.0779,0.0442,0.0808,20150313_045915_LRSS_20,LRSS,Randwick School,-41.2294301,174.90424587,0.0,-40.45683111,174.4586127,0.0808,0.000808,0.002,1,#989898
628,628,21,2015-03-13,04:58:46,2015p192452,M,4.32,34.2,,94,6.6,11.5,8.5,0.0669,0.1172,0.0864,20150313_045915_LIRS_20,LIRS,Lower Hutt IRL,-41.23231,174.91929,0.0,-40.45683111,174.4586127,0.1172,0.001172,0.002,1,#989898
629,629,22,2015-03-13,04:58:46,2015p192452,M,4.32,34.2,,95,4.4,5.1,8.4,0.0448,0.052,0.0852,20150313_045915_INSS_20,INSS,Lower Hutt GNS Nuclear Sciences,-41.233516778,174.921116168,0.0,-40.45683111,174.4586127,0.0852,0.000852,0.002,1,#989898
630,630,23,2015-03-13,04:58:46,2015p192452,M,4.32,34.2,,95,3.6,6.8,6.8,0.0367,0.069,0.069,20150313_045918_WEMS_20,WEMS,Wellington Emergency Management Office,-41.27428738,174.779264202,31.0,-40.45683111,174.4586127,0.069,0.0006900000000000001,0.002,1,#989898
631,631,24,2015-03-13,04:58:46,2015p192452,M,4.32,34.2,,95,5.6,6.5,5.9,0.0573,0.0659,0.0605,20150313_045905_KIRS_20,KIRS,Kaitoke Kiwi Ranch,-41.076883922,175.230010715,0.0,-40.45683111,174.4586127,0.0659,0.000659,0.002,1,#989898
632,632,25,2015-03-13,04:58:46,2015p192452,M,4.32,34.2,,95,8.0,13.4,10.6,0.0813,0.1363,0.1086,20150313_045915_WNKS_20,WNKS,Wellington Karori Normal School,-41.284817534,174.742053687,0.0,-40.45683111,174.4586127,0.1363,0.001363,0.002,1,#989898
633,633,26,2015-03-13,04:58:46,2015p192452,M,4.32,34.2,,95,6.1,6.8,8.3,0.0626,0.069,0.0851,20150313_045905_SOMS_20,SOMS,Somes Island,-41.25746,174.865,48.0,-40.45683111,174.4586127,0.0851,0.000851,0.002,1,#989898
634,634,27,2015-03-13,04:58:46,2015p192452,M,4.32,34.2,,95,5.8,6.4,7.7,0.0596,0.065,0.0781,20150313_045904_WEL_20,WEL,Wellington,-41.284047578,174.768184021,138.0,-40.45683111,174.4586127,0.0781,0.000781,0.002,1,#989898
635,635,28,2015-03-13,04:58:46,2015p192452,M,4.32,34.2,,96,7.2,6.8,4.5,0.0734,0.0692,0.0461,20150313_045906_PHHS_20,PHHS,Point Howard,-41.25209,174.904297,41.0,-40.45683111,174.4586127,0.0734,0.0007340000000000001,0.002,1,#989898
636,636,29,2015-03-13,04:58:46,2015p192452,M,4.32,34.2,,97,28.1,12.8,11.2,0.2869,0.1304,0.1138,20150313_045903_PNMS_20,PNMS,Monrad Intermediate School,-40.36286,175.59311,0.0,-40.45683111,174.4586127,0.2869,0.002869,0.002 - 0.05,2,#eff3ff
637,637,30,2015-03-13,04:58:46,2015p192452,M,4.32,34.2,,98,8.1,12.3,9.8,0.0823,0.125,0.0995,20150313_045904_MRZ_20,MRZ,Mangatainoka River,-40.66054537,175.578526763,286.0,-40.45683111,174.4586127,0.125,0.00125,0.002,1,#989898
638,638,31,2015-03-13,04:58:46,2015p192452,M,4.32,34.2,,98,7.2,7.3,11.8,0.0731,0.0743,0.1202,20150313_045904_PNBS_20,PNBS,Palmerston North Boys High School,-40.348948583,175.607578339,0.0,-40.45683111,174.4586127,0.1202,0.001202,0.002,1,#989898
639,639,32,2015-03-13,04:58:46,2015p192452,M,4.32,34.2,,98,12.4,30.6,33.0,0.1269,0.3124,0.3369,20150313_045917_QCCS_20,QCCS,Picton Queen Charlotte College,-41.279625689,174.023144608,27.0,-40.45683111,174.4586127,0.3369,0.0033689999999999996,0.002 - 0.05,2,#eff3ff
640,640,33,2015-03-13,04:58:46,2015p192452,M,4.32,34.2,,101,9.8,21.9,21.1,0.0997,0.2229,0.2157,20150313_045904_PNRS_20,PNRS,Palmerston North Roslyn School,-40.33027,175.6337,0.0,-40.45683111,174.4586127,0.2229,0.002229,0.002 - 0.05,2,#eff3ff
641,641,34,2015-03-13,04:58:46,2015p192452,M,4.32,34.2,,102,6.4,6.8,6.6,0.0655,0.0696,0.067,20150313_045917_SEAS_20,SEAS,Seatoun School Wellington,-41.326447,174.837638,0.0,-40.45683111,174.4586127,0.0696,0.000696,0.002,1,#989898
642,642,35,2015-03-13,04:58:46,2015p192452,M,4.32,34.2,,107,8.1,18.2,10.9,0.0829,0.1854,0.1115,20150313_045904_HAVS_20,HAVS,Havelock,-41.27227,173.78467,67.0,-40.45683111,174.4586127,0.1854,0.0018540000000000002,0.002,1,#989898
643,643,36,2015-03-13,04:58:46,2015p192452,M,4.32,34.2,,114,2.8,3.1,5.4,0.0285,0.0319,0.0551,20150313_045921_WRCS_20,WRCS,Masterton Wairarapa College,-40.950352011,175.647816501,120.0,-40.45683111,174.4586127,0.0551,0.0005510000000000001,0.002,1,#989898
644,644,37,2015-03-13,04:58:46,2015p192452,M,4.32,34.2,,119,4.6,8.6,7.8,0.0464,0.0875,0.0798,20150313_045908_BWRS_20,BWRS,Waikakaho Road,-41.43954404,173.90511789,75.0,-40.45683111,174.4586127,0.0875,0.0008749999999999999,0.002,1,#989898
645,645,38,2015-03-13,04:58:46,2015p192452,M,4.32,34.2,,119,4.0,5.1,7.0,0.0406,0.052,0.0712,20150313_045910_MAVS_20,MAVS,Martinborough Wines Vineyard,-41.210857507,175.461483109,33.0,-40.45683111,174.4586127,0.0712,0.000712,0.002,1,#989898
646,646,39,2015-03-13,04:58:46,2015p192452,M,4.32,34.2,,123,3.3,5.1,4.7,0.0338,0.0517,0.0481,20150313_045908_OPSS_20,OPSS,Opunake Primary School,-39.45002,173.85502,0.0,-40.45683111,174.4586127,0.0517,0.000517,0.002,1,#989898
647,647,40,2015-03-13,04:58:46,2015p192452,M,4.32,34.2,,132,9.6,13.3,14.2,0.0983,0.1356,0.1447,20150313_045909_TRMS_20,TRMS,Tiraumea,-40.671276,175.990997,260.0,-40.45683111,174.4586127,0.1447,0.001447,0.002,1,#989898
648,648,41,2015-03-13,04:58:46,2015p192452,M,4.32,34.2,,134,7.6,9.4,7.6,0.0775,0.0962,0.0779,20150313_045909_MNGS_20,MNGS,Mangaweka School,-39.80778,175.79083,324.0,-40.45683111,174.4586127,0.0962,0.000962,0.002,1,#989898
649,649,42,2015-03-13,04:58:46,2015p192452,M,4.32,34.2,,135,2.7,4.2,4.0,0.028,0.0424,0.0405,20150313_045909_TSZ_20,TSZ,Takapari Road,-40.058553101,175.961123866,531.0,-40.45683111,174.4586127,0.0424,0.000424,0.002,1,#989898
650,650,43,2015-03-13,04:58:46,2015p192452,M,4.32,34.2,,139,1.6,3.6,4.4,0.0163,0.0369,0.0447,20150313_045931_SEDS_20,SEDS,Seddon Fire Station,-41.67229,174.07645,90.0,-40.45683111,174.4586127,0.0447,0.00044699999999999997,0.002,1,#989898
651,651,44,2015-03-13,04:58:46,2015p192452,M,4.32,34.2,,150,5.8,13.3,15.2,0.0594,0.1354,0.1548,20150313_045912_VRZ_20,VRZ,Vera Road,-39.12434088,174.758452563,166.0,-40.45683111,174.4586127,0.1548,0.001548,0.002,1,#989898
652,652,45,2015-03-13,04:58:46,2015p192452,M,4.32,34.2,,155,0.9,2.2,2.2,0.0097,0.0225,0.0223,20150313_045934_WDFS_20,WDFS,Ward Fire Station,-41.827398743,174.138423708,34.0,-40.45683111,174.4586127,0.0225,0.000225,0.002,1,#989898
653,653,46,2015-03-13,04:58:46,2015p192452,M,4.32,34.2,,157,3.0,4.0,5.1,0.0306,0.0408,0.0519,20150313_045914_KHLS_20,KHLS,Kaihoka Lakes,-40.55704,172.61189,66.0,-40.45683111,174.4586127,0.0519,0.000519,0.002,1,#989898
654,654,0,2015-03-22,18:06:30,2015p218255,M,4.05,23.6,,22,30.8,57.2,42.2,0.3139,0.5829,0.4308,20150322_180639_MOLS_20,MOLS,Molesworth Station,-42.088022768,173.2574013,888.0,-41.91107104,173.3630408,0.5829,0.005829,0.002 - 0.05,2,#eff3ff
655,655,1,2015-03-22,18:06:30,2015p218255,M,4.05,23.6,,41,7.7,15.1,11.9,0.0784,0.1538,0.1215,20150322_180639_THZ_20,THZ,Top House,-41.762474128,172.905218304,747.0,-41.91107104,173.3630408,0.1538,0.0015379999999999999,0.002,1,#989898
656,656,2,2015-03-22,18:06:30,2015p218255,M,4.05,23.6,,52,11.3,14.0,34.2,0.1153,0.1424,0.3485,20150322_180641_KEKS_20,KEKS,Kekerengu Valley Road,-41.95569,173.98141,339.0,-41.91107104,173.3630408,0.3485,0.003485,0.002 - 0.05,2,#eff3ff
657,657,3,2015-03-22,18:06:30,2015p218255,M,4.05,23.6,,65,6.0,12.5,11.4,0.0615,0.127,0.1164,20150322_180645_SEDS_20,SEDS,Seddon Fire Station,-41.67229,174.07645,90.0,-41.91107104,173.3630408,0.127,0.00127,0.002,1,#989898
658,658,4,2015-03-22,18:06:30,2015p218255,M,4.05,23.6,,65,3.6,10.3,11.1,0.0365,0.1048,0.1132,20150322_180643_WDFS_20,WDFS,Ward Fire Station,-41.827398743,174.138423708,34.0,-41.91107104,173.3630408,0.1132,0.001132,0.002,1,#989898
659,659,5,2015-03-22,18:06:30,2015p218255,M,4.05,23.6,,66,6.2,16.9,21.5,0.0631,0.1727,0.2195,20150322_180653_MGCS_20,MGCS,Blenheim Marlborough Girls College,-41.507680768,173.944392627,9.0,-41.91107104,173.3630408,0.2195,0.002195,0.002 - 0.05,2,#eff3ff
660,660,6,2015-03-22,18:06:30,2015p218255,M,4.05,23.6,,69,13.6,9.9,10.1,0.1384,0.1014,0.1025,20150322_180643_BWRS_20,BWRS,Waikakaho Road,-41.43954404,173.90511789,75.0,-41.91107104,173.3630408,0.1384,0.001384,0.002,1,#989898
661,661,7,2015-03-22,18:06:30,2015p218255,M,4.05,23.6,,77,1.0,1.5,1.6,0.0097,0.0154,0.0164,20150322_180655_NNZ_20,NNZ,Nelson,-41.217102661,173.379476754,130.0,-41.91107104,173.3630408,0.0164,0.000164,0.002,1,#989898
662,662,8,2015-03-22,18:06:30,2015p218255,M,4.05,23.6,,79,7.3,7.7,7.7,0.0748,0.078,0.0786,20150322_180644_HAVS_20,HAVS,Havelock,-41.27227,173.78467,67.0,-41.91107104,173.3630408,0.0786,0.000786,0.002,1,#989898
663,663,9,2015-03-22,18:06:30,2015p218255,M,4.05,23.6,,81,2.1,2.7,3.2,0.0214,0.0271,0.0328,20150322_180646_HSES_20,HSES,Hanmer Springs Emergency Centre,-42.523242237,172.830493814,377.0,-41.91107104,173.3630408,0.0328,0.000328,0.002,1,#989898
664,664,10,2015-03-22,18:06:30,2015p218255,M,4.05,23.6,,101,8.5,2.8,3.4,0.0866,0.0284,0.0347,20150322_180703_CECS_20,CECS,Cheviot Emergency Centre,-42.813490547,173.274868178,69.0,-41.91107104,173.3630408,0.0866,0.000866,0.002,1,#989898
665,665,11,2015-03-22,18:06:30,2015p218255,M,4.05,23.6,,120,1.3,1.4,1.6,0.0138,0.0142,0.0161,20150322_180653_GVZ_20,GVZ,Greta Valley,-42.967365,173.03475,400.5,-41.91107104,173.3630408,0.0161,0.000161,0.002,1,#989898
666,666,12,2015-03-22,18:06:30,2015p218255,M,4.05,23.6,,133,1.4,1.6,2.1,0.0146,0.0166,0.0219,20150322_180654_MKVS_20,MKVS,Makara Village,-41.26542095,174.70552447,0.0,-41.91107104,173.3630408,0.0219,0.00021899999999999998,0.002,1,#989898
667,667,13,2015-03-22,18:06:30,2015p218255,M,4.05,23.6,,134,2.6,2.8,2.2,0.026,0.0289,0.0225,20150322_180654_WNKS_20,WNKS,Wellington Karori Normal School,-41.284817534,174.742053687,0.0,-41.91107104,173.3630408,0.0289,0.000289,0.002,1,#989898
668,668,14,2015-03-22,18:06:30,2015p218255,M,4.05,23.6,,135,0.8,1.1,0.9,0.0079,0.0117,0.0091,20150322_180655_MKBS_20,MKBS,Makara Bunker,-41.2259,174.6981,231.0,-41.91107104,173.3630408,0.0117,0.000117,0.002,1,#989898
669,669,15,2015-03-22,18:06:30,2015p218255,M,4.05,23.6,,136,2.5,2.5,3.1,0.0252,0.0259,0.0316,20150322_180655_WEL_20,WEL,Wellington,-41.284047578,174.768184021,138.0,-41.91107104,173.3630408,0.0316,0.00031600000000000004,0.002,1,#989898
670,670,16,2015-03-22,18:06:30,2015p218255,M,4.05,23.6,,137,2.2,1.5,1.3,0.022,0.0149,0.0134,20150322_180656_TEPS_20,TEPS,Wellington Te Papa Museum,-41.290587759,174.781064157,111.0,-41.91107104,173.3630408,0.022,0.00021999999999999998,0.002,1,#989898
671,671,17,2015-03-22,18:06:30,2015p218255,M,4.05,23.6,,137,3.5,2.5,6.3,0.0359,0.026,0.0644,20150322_180655_VUWS_20,VUWS,Victoria University Law School,-41.279854,174.778399,0.0,-41.91107104,173.3630408,0.0644,0.000644,0.002,1,#989898
