,Unnamed: 0,Unnamed: 0.1,Earthquake Date (UT),Time (UT),ID,Mag Type,Magnitude,Depth (km),R?,Epic. Dist.(km),PGA Vertical (mm/s/s),PGA Horiz_1 (mm/s/s),PGA Horiz_2 (mm/s/s),PGA Vertical (%g),PGA Horiz_1 (%g),PGA Horiz_2 (%g),Accelerogram ID,Site Code,Name,Site Latitude,Site Longitude,Site Elevation (m),EQ_lat,EQ_lon,max_percent,max pga,pg_bracket,pga_size,color
504,504,17,2015-02-25,12:40:38,2015p150076,M,4.64,21.5,,130,3.2,7.1,5.9,0.0328,0.0726,0.0599,20150225_124103_DSZ_20,DSZ,Denniston North,-41.744960821,171.804614445,650.0,-41.90830855,173.3541918,0.0726,0.000726,0.002,1,#989898
505,505,18,2015-02-25,12:40:38,2015p150076,M,4.64,21.5,,133,2.0,4.7,4.8,0.02,0.0475,0.0485,20150225_124102_MKVS_20,MKVS,Makara Village,-41.26542095,174.70552447,0.0,-41.90830855,173.3541918,0.0485,0.000485,0.002,1,#989898
506,506,19,2015-02-25,12:40:38,2015p150076,M,4.64,21.5,,135,3.7,12.2,6.4,0.0374,0.1245,0.0656,20150225_124101_WNKS_20,WNKS,Wellington Karori Normal School,-41.284817534,174.742053687,0.0,-41.90830855,173.3541918,0.1245,0.001245,0.002,1,#989898
507,507,20,2015-02-25,12:40:38,2015p150076,M,4.64,21.5,,135,1.7,4.4,3.6,0.0178,0.0448,0.0369,20150225_124102_MKBS_20,MKBS,Makara Bunker,-41.2259,174.6981,231.0,-41.90830855,173.3541918,0.0448,0.000448,0.002,1,#989898
508,508,21,2015-02-25,12:40:38,2015p150076,M,4.64,21.5,,136,4.5,6.4,7.0,0.046,0.0653,0.071,20150225_124131_TRTS_20,TRTS,Torrens Terrace Wellington,-41.2987,174.7739,0.0,-41.90830855,173.3541918,0.071,0.0007099999999999999,0.002,1,#989898
509,509,22,2015-02-25,12:40:38,2015p150076,M,4.64,21.5,,137,4.8,4.4,3.7,0.0486,0.045,0.0379,20150225_124102_CUBS_20,CUBS,Cuba Street,-41.295463,174.774381,0.0,-41.90830855,173.3541918,0.0486,0.000486,0.002,1,#989898
510,510,23,2015-02-25,12:40:38,2015p150076,M,4.64,21.5,,137,5.7,5.2,7.8,0.0578,0.0528,0.0795,20150225_124102_WEL_20,WEL,Wellington,-41.284047578,174.768184021,138.0,-41.90830855,173.3541918,0.0795,0.000795,0.002,1,#989898
511,511,24,2015-02-25,12:40:38,2015p150076,M,4.64,21.5,,138,5.2,4.5,7.5,0.0535,0.0464,0.0766,20150225_124102_BOWS_20,BOWS,Bowen St Turnbull House Wellington,-41.279193,174.776323,0.0,-41.90830855,173.3541918,0.0766,0.000766,0.002,1,#989898
512,512,25,2015-02-25,12:40:38,2015p150076,M,4.64,21.5,,138,7.3,6.9,26.1,0.0744,0.0703,0.2658,20150225_124102_VUWS_20,VUWS,Victoria University Law School,-41.279854,174.778399,0.0,-41.90830855,173.3541918,0.2658,0.0026579999999999998,0.002 - 0.05,2,#eff3ff
513,513,26,2015-02-25,12:40:38,2015p150076,M,4.64,21.5,,139,5.7,5.0,5.8,0.0582,0.0513,0.0589,20150225_124104_PIPS_20,PIPS,Aotea Quay Pipitea,-41.267486611,174.786068248,0.0,-41.90830855,173.3541918,0.0589,0.000589,0.002,1,#989898
514,514,27,2015-02-25,12:40:38,2015p150076,M,4.64,21.5,,140,3.6,3.9,3.2,0.0365,0.0401,0.0325,20150225_124102_SEAS_20,SEAS,Seatoun School Wellington,-41.326447,174.837638,0.0,-41.90830855,173.3541918,0.0401,0.000401,0.002,1,#989898
515,515,28,2015-02-25,12:40:38,2015p150076,M,4.64,21.5,,144,1.8,2.5,2.2,0.0182,0.0257,0.0227,20150225_124103_NEWS_20,NEWS,Newlands,-41.23204,174.82178,218.0,-41.90830855,173.3541918,0.0257,0.000257,0.002,1,#989898
516,516,29,2015-02-25,12:40:38,2015p150076,M,4.64,21.5,,145,4.0,1.8,1.8,0.041,0.018,0.0187,20150225_124103_SOMS_20,SOMS,Somes Island,-41.25746,174.865,48.0,-41.90830855,173.3541918,0.041,0.00041,0.002,1,#989898
517,517,30,2015-02-25,12:40:38,2015p150076,M,4.64,21.5,,146,1.6,1.6,1.5,0.0167,0.0161,0.0155,20150225_124103_EBPS_20,EBPS,Eastbourne Police Station,-41.289428012,174.900235673,0.0,-41.90830855,173.3541918,0.0167,0.000167,0.002,1,#989898
518,518,31,2015-02-25,12:40:38,2015p150076,M,4.64,21.5,,147,1.6,1.7,2.1,0.0159,0.017,0.0213,20150225_124104_PTOS_20,PTOS,Petone Overbridge,-41.222973,174.860302,9999.0,-41.90830855,173.3541918,0.0213,0.000213,0.002,1,#989898
519,519,32,2015-02-25,12:40:38,2015p150076,M,4.64,21.5,,148,3.3,3.8,4.2,0.0332,0.0385,0.0426,20150225_124136_PVCS_20,PVCS,Petone Victoria Street,-41.22474608,174.87391737,0.0,-41.90830855,173.3541918,0.0426,0.000426,0.002,1,#989898
520,520,33,2015-02-25,12:40:38,2015p150076,M,4.64,21.5,,148,2.2,3.2,3.8,0.0221,0.0329,0.0383,20150225_124104_PGMS_20,PGMS,Petone Municipal Building,-41.224506474,174.879435677,0.0,-41.90830855,173.3541918,0.0383,0.000383,0.002,1,#989898
521,521,34,2015-02-25,12:40:38,2015p150076,M,4.64,21.5,,148,3.4,1.8,2.7,0.0348,0.0184,0.0275,20150225_124104_PHHS_20,PHHS,Point Howard,-41.25209,174.904297,41.0,-41.90830855,173.3541918,0.0348,0.000348,0.002,1,#989898
522,522,35,2015-02-25,12:40:38,2015p150076,M,4.64,21.5,,150,1.9,4.3,3.6,0.0193,0.0434,0.037,20150225_124104_PWES_20,PWES,Porirua West,-41.12746,174.82586,9999.0,-41.90830855,173.3541918,0.0434,0.00043400000000000003,0.002,1,#989898
523,523,36,2015-02-25,12:40:38,2015p150076,M,4.64,21.5,,151,5.5,3.8,4.2,0.0557,0.0386,0.0426,20150225_124105_LIRS_20,LIRS,Lower Hutt IRL,-41.23231,174.91929,0.0,-41.90830855,173.3541918,0.0557,0.000557,0.002,1,#989898
524,524,37,2015-02-25,12:40:38,2015p150076,M,4.64,21.5,,151,2.6,1.3,1.6,0.0264,0.0131,0.0167,20150225_124104_INSS_20,INSS,Lower Hutt GNS Nuclear Sciences,-41.233516778,174.921116168,0.0,-41.90830855,173.3541918,0.0264,0.000264,0.002,1,#989898
525,525,38,2015-02-25,12:40:38,2015p150076,M,4.64,21.5,,151,4.0,5.1,6.3,0.0406,0.0523,0.0637,20150225_124105_WDAS_20,WDAS,Wainuiomata Bush Fire Force,-41.257397389,174.948466416,90.0,-41.90830855,173.3541918,0.0637,0.0006370000000000001,0.002,1,#989898
526,526,39,2015-02-25,12:40:38,2015p150076,M,4.64,21.5,,153,2.0,2.5,2.9,0.02,0.026,0.0296,20150225_124112_LNBS_20,LNBS,Naenae Bowling Club,-41.20498,174.9266,0.0,-41.90830855,173.3541918,0.0296,0.00029600000000000004,0.002,1,#989898
527,527,40,2015-02-25,12:40:38,2015p150076,M,4.64,21.5,,154,2.0,1.5,1.5,0.0203,0.0152,0.015,20150225_124105_FAIS_20,FAIS,Fairfield,-41.2074,174.9401,9999.0,-41.90830855,173.3541918,0.0203,0.00020299999999999997,0.002,1,#989898
528,528,41,2015-02-25,12:40:38,2015p150076,M,4.64,21.5,,155,4.4,8.5,7.4,0.0452,0.0865,0.0753,20150225_124105_NBSS_20,NBSS,St Bernadette's School,-41.202272,174.953755,0.0,-41.90830855,173.3541918,0.0865,0.0008649999999999999,0.002,1,#989898
529,529,42,2015-02-25,12:40:38,2015p150076,M,4.64,21.5,,156,3.0,2.6,2.4,0.0308,0.0268,0.024,20150225_124105_TAIS_20,TAIS,Taita Central School,-41.18038403,174.954771915,0.0,-41.90830855,173.3541918,0.0308,0.000308,0.002,1,#989898
530,530,43,2015-02-25,12:40:38,2015p150076,M,4.64,21.5,,162,2.7,6.4,6.6,0.0271,0.0656,0.067,20150225_124108_KHLS_20,KHLS,Kaihoka Lakes,-40.55704,172.61189,66.0,-41.90830855,173.3541918,0.067,0.00067,0.002,1,#989898
531,531,44,2015-02-25,12:40:38,2015p150076,M,4.64,21.5,,170,1.9,1.8,1.7,0.0198,0.0182,0.0178,20150225_124107_TOTS_20,TOTS,Totara Park Upper Hutt,-41.10492,175.08539,0.0,-41.90830855,173.3541918,0.0198,0.00019800000000000002,0.002,1,#989898
532,532,45,2015-02-25,12:40:38,2015p150076,M,4.64,21.5,,173,1.7,3.7,2.7,0.0177,0.038,0.0278,20150225_124109_KPOC_20,KPOC,Kaiapoi North School,-43.376463195,172.66376756,0.0,-41.90830855,173.3541918,0.038,0.00037999999999999997,0.002,1,#989898
533,533,46,2015-02-25,12:40:38,2015p150076,M,4.64,21.5,,177,3.2,4.6,3.5,0.0327,0.0468,0.036,20150225_124109_PAPS_20,PAPS,Paraparaumu Primary School,-40.914319724,175.004958529,9.0,-41.90830855,173.3541918,0.0468,0.000468,0.002,1,#989898
534,534,47,2015-02-25,12:40:38,2015p150076,M,4.64,21.5,,180,2.4,2.0,3.5,0.025,0.0208,0.0359,20150225_124109_IFPS_20,IFPS,Inchbonnie Fitzsimmons,-42.726743647,171.472835397,0.0,-41.90830855,173.3541918,0.0359,0.000359,0.002,1,#989898
535,535,48,2015-02-25,12:40:38,2015p150076,M,4.64,21.5,,182,1.2,3.0,2.2,0.0124,0.0302,0.0226,20150225_124110_KIRS_20,KIRS,Kaitoke Kiwi Ranch,-41.076883922,175.230010715,0.0,-41.90830855,173.3541918,0.0302,0.000302,0.002,1,#989898
536,536,49,2015-02-25,12:40:38,2015p150076,M,4.64,21.5,,187,2.4,2.4,1.8,0.0249,0.024,0.0183,20150225_124109_APPS_20,APPS,Arthurs Pass Police Station,-42.948949444,171.567735496,743.0,-41.90830855,173.3541918,0.0249,0.000249,0.002,1,#989898
537,537,50,2015-02-25,12:40:38,2015p150076,M,4.64,21.5,,188,1.2,1.2,1.8,0.0123,0.0126,0.0182,20150225_124112_SACS_20,SACS,St Andrews College Christchurch,-43.50674,172.61619,0.0,-41.90830855,173.3541918,0.0182,0.000182,0.002,1,#989898
538,538,51,2015-02-25,12:40:38,2015p150076,M,4.64,21.5,,191,2.5,1.5,2.4,0.0253,0.0156,0.024,20150225_124108_OXZ_20,OXZ,Oxford,-43.3259,172.0383,360.0,-41.90830855,173.3541918,0.0253,0.00025299999999999997,0.002,1,#989898
539,539,52,2015-02-25,12:40:38,2015p150076,M,4.64,21.5,,192,2.2,1.6,1.9,0.022,0.0161,0.0196,20150225_124113_MAVS_20,MAVS,Martinborough Wines Vineyard,-41.210857507,175.461483109,33.0,-41.90830855,173.3541918,0.022,0.00021999999999999998,0.002,1,#989898
540,540,53,2015-02-25,12:40:38,2015p150076,M,4.64,21.5,,197,3.7,2.1,1.4,0.0377,0.0218,0.0146,20150225_124109_SPRS_20,SPRS,Springfield Volunteer Fire Station,-43.3368,171.93008,9999.0,-41.90830855,173.3541918,0.0377,0.00037699999999999995,0.002,1,#989898
541,541,54,2015-02-25,12:40:38,2015p150076,M,4.64,21.5,,198,1.2,1.5,1.8,0.0124,0.0157,0.0186,20150225_124110_DHSS_20,DHSS,Diamond Harbour School,-43.63026,172.72725,97.0,-41.90830855,173.3541918,0.0186,0.000186,0.002,1,#989898
542,542,55,2015-02-25,12:40:38,2015p150076,M,4.64,21.5,,198,1.9,0.9,1.4,0.0198,0.009,0.0142,20150225_124111_CSHS_20,CSHS,Castle Hill Station,-43.226526873,171.723556103,731.0,-41.90830855,173.3541918,0.0198,0.00019800000000000002,0.002,1,#989898
543,543,56,2015-02-25,12:40:38,2015p150076,M,4.64,21.5,,202,1.7,4.3,3.5,0.0173,0.0439,0.0353,20150225_124109_GOVS_20,GOVS,Living Springs Camp Governors Bay,-43.652421,172.635725,163.0,-41.90830855,173.3541918,0.0439,0.000439,0.002,1,#989898
544,544,57,2015-02-25,12:40:38,2015p150076,M,4.64,21.5,,230,2.3,1.2,1.3,0.0232,0.0121,0.0134,20150225_124114_MTHS_20,MTHS,Methven North,-43.563194,171.666362,410.0,-41.90830855,173.3541918,0.0232,0.00023199999999999997,0.002,1,#989898
545,545,58,2015-02-25,12:40:38,2015p150076,M,4.64,21.5,,251,1.4,1.6,1.6,0.0142,0.0165,0.0161,20150225_124118_WVAS_20,WVAS,Kakapotahi,-43.071550222,170.737154179,87.0,-41.90830855,173.3541918,0.0165,0.000165,0.002,1,#989898
546,546,59,2015-02-25,12:40:38,2015p150076,M,4.64,21.5,,255,1.8,3.2,2.6,0.0188,0.0326,0.0265,20150225_124121_PNMS_20,PNMS,Monrad Intermediate School,-40.36286,175.59311,0.0,-41.90830855,173.3541918,0.0326,0.00032599999999999996,0.002,1,#989898
547,547,60,2015-02-25,12:40:38,2015p150076,M,4.64,21.5,,293,0.6,1.0,1.1,0.0063,0.0104,0.0113,20150225_124124_WHAS_20,WHAS,Gaunt Creek,-43.314319211,170.326847608,198.0,-41.90830855,173.3541918,0.0113,0.000113,0.002,1,#989898
548,548,0,2015-02-25,19:33:08,2015p150850,M,4.81,12.0,,142,2.1,4.1,3.4,0.0211,0.0416,0.0346,20150225_193349_MXZ_20,MXZ,Matakaoa Point,-37.562258507,178.306631253,106.0,-36.5832901,177.2750702,0.0416,0.000416,0.002,1,#989898
549,549,1,2015-02-25,19:33:08,2015p150850,M,4.81,12.0,,187,4.1,5.8,6.4,0.0422,0.0589,0.0655,20150225_193403_PUZ_20,PUZ,Puketiti,-38.071547867,178.257209049,430.0,-36.5832901,177.2750702,0.0655,0.000655,0.002,1,#989898
550,550,0,2015-02-28,14:18:24,2015p158367,M,4.36,12.0,,148,1.3,2.0,1.8,0.0136,0.0207,0.0179,20150228_141905_MXZ_20,MXZ,Matakaoa Point,-37.562258507,178.306631253,106.0,-36.50691986,177.2904968,0.0207,0.000207,0.002,1,#989898
551,551,0,2015-03-07,01:47:23,2015p175877,M,4.59,271.0,,113,7.0,8.3,8.0,0.0718,0.0846,0.0816,20150307_014802_WAZ_20,WAZ,Wanganui,-39.754644424,174.985532904,382.0,-38.74099971,175.0934549,0.0846,0.000846,0.002,1,#989898
552,552,1,2015-03-07,01:47:23,2015p175877,M,4.59,271.0,,121,9.2,9.5,8.7,0.0937,0.0967,0.089,20150307_014803_THHS_20,THHS,Taihape Hospital,-39.67995471,175.795593232,0.0,-38.74099971,175.0934549,0.0967,0.000967,0.002,1,#989898
553,553,2,2015-03-07,01:47:23,2015p175877,M,4.59,271.0,,132,12.9,11.8,9.4,0.1319,0.1207,0.0961,20150307_014805_WCDS_20,WCDS,Wanganui Civil Defence Store,-39.933638357,175.047992977,9.0,-38.74099971,175.0934549,0.1319,0.0013189999999999999,0.002,1,#989898
554,554,3,2015-03-07,01:47:23,2015p175877,M,4.59,271.0,,133,7.2,8.7,10.2,0.0738,0.0889,0.1037,20150307_014832_MNGS_20,MNGS,Mangaweka School,-39.80778,175.79083,324.0,-38.74099971,175.0934549,0.1037,0.001037,0.002,1,#989898
555,555,4,2015-03-07,01:47:23,2015p175877,M,4.59,271.0,,152,4.9,16.0,11.0,0.0498,0.1636,0.112,20150307_014743_MTHZ_20,MTHZ,Maungataniwha,-38.8523,176.8411,620.0,-38.74099971,175.0934549,0.1636,0.0016359999999999999,0.002,1,#989898
556,556,5,2015-03-07,01:47:23,2015p175877,M,4.59,271.0,,164,4.4,11.0,10.2,0.0451,0.1126,0.1044,20150307_014834_TSZ_20,TSZ,Takapari Road,-40.058553101,175.961123866,531.0,-38.74099971,175.0934549,0.1126,0.001126,0.002,1,#989898
557,557,6,2015-03-07,01:47:23,2015p175877,M,4.59,271.0,,174,4.4,5.9,5.8,0.0444,0.0599,0.0596,20150307_014836_NAAS_20,NAAS,Napier Airport,-39.468735,176.872021,0.0,-38.74099971,175.0934549,0.0599,0.000599,0.002,1,#989898
558,558,7,2015-03-07,01:47:23,2015p175877,M,4.59,271.0,,176,3.2,8.2,8.4,0.0328,0.0837,0.0858,20150307_014836_NCDS_20,NCDS,Napier Civil Defence,-39.500148,176.875885,4.0,-38.74099971,175.0934549,0.0858,0.000858,0.002,1,#989898
559,559,8,2015-03-07,01:47:23,2015p175877,M,4.59,271.0,,178,2.6,5.9,4.9,0.0267,0.0603,0.0504,20150307_014837_NCHS_20,NCHS,Napier Colenso High School,-39.506633503,176.896757521,0.0,-38.74099971,175.0934549,0.0603,0.000603,0.002,1,#989898
560,560,9,2015-03-07,01:47:23,2015p175877,M,4.59,271.0,,178,2.0,3.7,3.8,0.0208,0.0377,0.0391,20150307_014837_NGHS_20,NGHS,Napier Girls High School,-39.485873112,176.91492782,70.0,-38.74099971,175.0934549,0.0391,0.000391,0.002,1,#989898
561,561,10,2015-03-07,01:47:23,2015p175877,M,4.59,271.0,,182,8.9,27.9,25.1,0.0909,0.2846,0.2562,20150307_014836_PNRS_20,PNRS,Palmerston North Roslyn School,-40.33027,175.6337,0.0,-38.74099971,175.0934549,0.2846,0.002846,0.002 - 0.05,2,#eff3ff
562,562,11,2015-03-07,01:47:23,2015p175877,M,4.59,271.0,,185,9.2,26.5,22.2,0.0937,0.2703,0.2264,20150307_014836_PNMS_20,PNMS,Monrad Intermediate School,-40.36286,175.59311,0.0,-38.74099971,175.0934549,0.2703,0.0027029999999999997,0.002 - 0.05,2,#eff3ff
563,563,12,2015-03-07,01:47:23,2015p175877,M,4.59,271.0,,185,1.8,3.6,8.0,0.0183,0.0367,0.0814,20150307_014835_WPWS_20,WPWS,Waipawa District Council,-39.943862017,176.584322066,140.0,-38.74099971,175.0934549,0.0814,0.000814,0.002,1,#989898
564,564,13,2015-03-07,01:47:23,2015p175877,M,4.59,271.0,,186,3.0,4.2,4.3,0.0308,0.0427,0.0443,20150307_014837_HNPS_20,HNPS,Havelock North Primary School,-39.671016892,176.880106731,24.0,-38.74099971,175.0934549,0.0443,0.000443,0.002,1,#989898
565,565,14,2015-03-07,01:47:23,2015p175877,M,4.59,271.0,,191,12.8,15.0,18.1,0.1306,0.1534,0.1841,20150307_014839_FXBS_20,FXBS,Foxton Beach School,-40.46136017,175.22603312,0.0,-38.74099971,175.0934549,0.1841,0.0018410000000000002,0.002,1,#989898
566,566,15,2015-03-07,01:47:23,2015p175877,M,4.59,271.0,,217,9.0,5.8,5.7,0.0915,0.0591,0.0577,20150307_014841_PGFS_20,PGFS,Porangahau Fire Station,-40.302199783,176.611751099,15.0,-38.74099971,175.0934549,0.0915,0.000915,0.002,1,#989898
567,567,16,2015-03-07,01:47:23,2015p175877,M,4.59,271.0,,217,2.4,4.8,7.8,0.024,0.0491,0.0797,20150307_014840_MRZ_20,MRZ,Mangatainoka River,-40.66054537,175.578526763,286.0,-38.74099971,175.0934549,0.0797,0.000797,0.002,1,#989898
568,568,17,2015-03-07,01:47:23,2015p175877,M,4.59,271.0,,227,14.6,11.9,15.4,0.1485,0.1214,0.1568,20150307_014843_THOB_21,THOB,Te Horo House,-40.789402441,175.092971338,0.0,-38.74099971,175.0934549,0.1568,0.001568,0.002,1,#989898
569,569,18,2015-03-07,01:47:23,2015p175877,M,4.59,271.0,,228,8.9,22.5,20.6,0.0902,0.2299,0.21,20150307_014842_TRMS_20,TRMS,Tiraumea,-40.671276,175.990997,260.0,-38.74099971,175.0934549,0.2299,0.002299,0.002 - 0.05,2,#eff3ff
570,570,19,2015-03-07,01:47:23,2015p175877,M,4.59,271.0,,241,6.3,11.5,13.6,0.0645,0.1171,0.1391,20150307_014843_PAPS_20,PAPS,Paraparaumu Primary School,-40.914319724,175.004958529,9.0,-38.74099971,175.0934549,0.1391,0.001391,0.002,1,#989898
571,571,20,2015-03-07,01:47:23,2015p175877,M,4.59,271.0,,250,0.9,2.1,2.9,0.0094,0.0219,0.0297,20150307_014845_WRCS_20,WRCS,Masterton Wairarapa College,-40.950352011,175.647816501,120.0,-38.74099971,175.0934549,0.0297,0.000297,0.002,1,#989898
572,572,21,2015-03-07,01:47:23,2015p175877,M,4.59,271.0,,256,1.5,3.6,3.3,0.0153,0.0364,0.034,20150307_014847_GKBS_20,GKBS,Kaiti Beach,-38.68217,178.03188,30.0,-38.74099971,175.0934549,0.0364,0.000364,0.002,1,#989898
573,573,22,2015-03-07,01:47:23,2015p175877,M,4.59,271.0,,258,2.5,4.4,3.9,0.0252,0.0454,0.0398,20150307_014849_CPFS_20,CPFS,Castlepoint Fire Station,-40.898762125,176.220963947,9.0,-38.74099971,175.0934549,0.0454,0.00045400000000000003,0.002,1,#989898
574,574,23,2015-03-07,01:47:23,2015p175877,M,4.59,271.0,,260,3.9,6.2,7.5,0.0393,0.0634,0.0761,20150307_014846_KIRS_20,KIRS,Kaitoke Kiwi Ranch,-41.076883922,175.230010715,0.0,-38.74099971,175.0934549,0.0761,0.000761,0.002,1,#989898
575,575,24,2015-03-07,01:47:23,2015p175877,M,4.59,271.0,,262,9.5,11.4,10.1,0.0965,0.1164,0.1031,20150307_014812_TOTS_20,TOTS,Totara Park Upper Hutt,-41.10492,175.08539,0.0,-38.74099971,175.0934549,0.1164,0.001164,0.002,1,#989898
576,576,25,2015-03-07,01:47:23,2015p175877,M,4.59,271.0,,265,3.5,6.2,6.9,0.0358,0.0633,0.0707,20150307_014846_UHSS_20,UHSS,Upper Hutt Primary School,-41.12638,175.06509,0.0,-38.74099971,175.0934549,0.0707,0.000707,0.002,1,#989898
577,577,26,2015-03-07,01:47:23,2015p175877,M,4.59,271.0,,266,20.3,14.6,31.2,0.2072,0.1493,0.3184,20150307_014846_POKS_20,POKS,Katoa Kindergarten,-41.12495,174.83151,0.0,-38.74099971,175.0934549,0.3184,0.003184,0.002 - 0.05,2,#eff3ff
578,578,27,2015-03-07,01:47:23,2015p175877,M,4.59,271.0,,266,4.0,7.2,6.8,0.041,0.0736,0.0698,20150307_014846_PWES_20,PWES,Porirua West,-41.12746,174.82586,9999.0,-38.74099971,175.0934549,0.0736,0.000736,0.002,1,#989898
579,579,28,2015-03-07,01:47:23,2015p175877,M,4.59,271.0,,268,5.2,8.5,7.4,0.0535,0.0866,0.075,20150307_014812_HSSS_20,HSSS,Lower Hutt Haywards Substation,-41.151935054,174.981477266,0.0,-38.74099971,175.0934549,0.0866,0.000866,0.002,1,#989898
580,580,29,2015-03-07,01:47:23,2015p175877,M,4.59,271.0,,271,3.2,7.8,6.4,0.0331,0.0797,0.0653,20150307_014847_TAIS_20,TAIS,Taita Central School,-41.18038403,174.954771915,0.0,-38.74099971,175.0934549,0.0797,0.000797,0.002,1,#989898
581,581,30,2015-03-07,01:47:23,2015p175877,M,4.59,271.0,,272,2.5,5.0,6.4,0.0252,0.0507,0.0651,20150307_014847_BMTS_20,BMTS,Belmont,-41.191372,174.92603,84.0,-38.74099971,175.0934549,0.0651,0.0006510000000000001,0.002,1,#989898
582,582,31,2015-03-07,01:47:23,2015p175877,M,4.59,271.0,,274,12.7,26.5,25.3,0.1297,0.2704,0.2576,20150307_014813_NBSS_20,NBSS,St Bernadette's School,-41.202272,174.953755,0.0,-38.74099971,175.0934549,0.2704,0.002704,0.002 - 0.05,2,#eff3ff
583,583,32,2015-03-07,01:47:23,2015p175877,M,4.59,271.0,,274,3.3,8.1,8.0,0.0336,0.0822,0.082,20150307_014820_LNBS_20,LNBS,Naenae Bowling Club,-41.20498,174.9266,0.0,-38.74099971,175.0934549,0.0822,0.0008219999999999999,0.002,1,#989898
584,584,33,2015-03-07,01:47:23,2015p175877,M,4.59,271.0,,274,3.1,6.6,4.8,0.0314,0.0674,0.0492,20150307_014813_FAIS_20,FAIS,Fairfield,-41.2074,174.9401,9999.0,-38.74099971,175.0934549,0.0674,0.000674,0.002,1,#989898
585,585,34,2015-03-07,01:47:23,2015p175877,M,4.59,271.0,,276,4.5,5.6,6.2,0.0457,0.0567,0.0633,20150307_014848_MAVS_20,MAVS,Martinborough Wines Vineyard,-41.210857507,175.461483109,33.0,-38.74099971,175.0934549,0.0633,0.000633,0.002,1,#989898
586,586,35,2015-03-07,01:47:23,2015p175877,M,4.59,271.0,,276,3.3,5.8,5.7,0.0342,0.0588,0.0582,20150307_014815_PTOS_20,PTOS,Petone Overbridge,-41.222973,174.860302,9999.0,-38.74099971,175.0934549,0.0588,0.000588,0.002,1,#989898
587,587,36,2015-03-07,01:47:23,2015p175877,M,4.59,271.0,,276,4.3,13.8,9.6,0.044,0.1403,0.0974,20150307_014921_PVCS_20,PVCS,Petone Victoria Street,-41.22474608,174.87391737,0.0,-38.74099971,175.0934549,0.1403,0.0014030000000000002,0.002,1,#989898
