,Unnamed: 0,Unnamed: 0.1,Earthquake Date (UT),Time (UT),ID,Mag Type,Magnitude,Depth (km),R?,Epic. Dist.(km),PGA Vertical (mm/s/s),PGA Horiz_1 (mm/s/s),PGA Horiz_2 (mm/s/s),PGA Vertical (%g),PGA Horiz_1 (%g),PGA Horiz_2 (%g),Accelerogram ID,Site Code,Name,Site Latitude,Site Longitude,Site Elevation (m),EQ_lat,EQ_lon,max_percent,max pga,pg_bracket,pga_size,color
420,420,17,2015-01-30,21:38:21,2015p080815,M,4.12,5.0,,77,2.7,3.6,3.5,0.0277,0.0366,0.0352,20150130_213836_GVZ_20,GVZ,Greta Valley,-42.967365,173.03475,400.5,-42.96938705,172.0918427,0.0366,0.000366,0.002,1,#989898
421,421,18,2015-01-30,21:38:21,2015p080815,M,4.12,5.0,,77,6.8,14.5,14.5,0.0698,0.1474,0.1478,20150130_213836_HHSS_20,HHSS,Hillmorton High School,-43.5575,172.5928,0.0,-42.96938705,172.0918427,0.1478,0.001478,0.002,1,#989898
422,422,19,2015-01-30,21:38:21,2015p080815,M,4.12,5.0,,78,1.7,2.3,1.5,0.0169,0.0234,0.015,20150130_213847_DSLC_20,DSLC,Dunsandel School,-43.667499474,172.19792004,68.0,-42.96938705,172.0918427,0.0234,0.000234,0.002,1,#989898
423,423,20,2015-01-30,21:38:21,2015p080815,M,4.12,5.0,,80,5.0,15.7,14.3,0.0509,0.1602,0.1459,20150130_213837_OPWS_20,OPWS,Opawa School,-43.55619,172.66429,0.0,-42.96938705,172.0918427,0.1602,0.0016020000000000001,0.002,1,#989898
424,424,21,2015-01-30,21:38:21,2015p080815,M,4.12,5.0,,82,3.2,4.7,4.0,0.0331,0.048,0.0405,20150130_213836_HUNS_20,HUNS,Huntsbury,-43.57937,172.65723,207.0,-42.96938705,172.0918427,0.048,0.00048,0.002,1,#989898
425,425,22,2015-01-30,21:38:21,2015p080815,M,4.12,5.0,,83,5.7,14.2,21.9,0.0583,0.1445,0.2228,20150130_213847_MENS_20,MENS,Menlo Terrace Mount Pleasant Christchurch,-43.55849,172.71149,35.0,-42.96938705,172.0918427,0.2228,0.002228,0.002 - 0.05,2,#eff3ff
426,426,23,2015-01-30,21:38:21,2015p080815,M,4.12,5.0,,86,2.3,4.3,9.1,0.0233,0.0435,0.0932,20150130_213837_SUMS_20,SUMS,Sumner,-43.56921,172.75681,9.0,-42.96938705,172.0918427,0.0932,0.0009320000000000001,0.002,1,#989898
427,427,24,2015-01-30,21:38:21,2015p080815,M,4.12,5.0,,88,4.9,8.3,9.5,0.0497,0.0844,0.0966,20150130_213837_GOVS_20,GOVS,Living Springs Camp Governors Bay,-43.652421,172.635725,163.0,-42.96938705,172.0918427,0.0966,0.0009660000000000001,0.002,1,#989898
428,428,25,2015-01-30,21:38:21,2015p080815,M,4.12,5.0,,90,4.7,6.9,9.6,0.0477,0.0702,0.0976,20150130_213837_DHSS_20,DHSS,Diamond Harbour School,-43.63026,172.72725,97.0,-42.96938705,172.0918427,0.0976,0.0009760000000000001,0.002,1,#989898
429,429,26,2015-01-30,21:38:21,2015p080815,M,4.12,5.0,,103,1.5,1.7,1.6,0.0157,0.0176,0.0158,20150130_213854_MNZS_20,MNZS,Menzies Bay Banks Peninsula,-43.637364,172.973808,102.0,-42.96938705,172.0918427,0.0176,0.00017600000000000002,0.002,1,#989898
430,430,27,2015-01-30,21:38:21,2015p080815,M,4.12,5.0,,109,1.0,1.6,1.8,0.0104,0.0159,0.0187,20150130_213855_MAYC_20,MAYC,Mayfield School,-43.82306143,171.421709104,258.0,-42.96938705,172.0918427,0.0187,0.00018700000000000002,0.002,1,#989898
431,431,0,2015-02-05,23:02:35,2015p097189,M,4.49,18.7,,2,40.9,66.2,59.8,0.4166,0.6747,0.61,20150205_230239_GWTS_20,GWTS,Gisborne Waipaoa Water Treatment Plant,-38.625677862,177.921583161,0.0,-38.60874191,177.9136323,0.6747,0.0067469999999999995,0.002 - 0.05,2,#eff3ff
432,432,1,2015-02-05,23:02:35,2015p097189,M,4.49,18.7,,10,107.4,118.6,97.5,1.0956,1.2098,0.9939,20150205_230240_GHHS_20,GHHS,Gisborne Hospital Hill,-38.64178,178.01772,0.0,-38.60874191,177.9136323,1.2098,0.012098,0.002 - 0.05,2,#eff3ff
433,433,2,2015-02-05,23:02:35,2015p097189,M,4.49,18.7,,11,135.6,109.3,109.7,1.3829,1.115,1.1186,20150205_230240_GISS_20,GISS,Gisborne 2ZG,-38.666488866,178.022674268,0.0,-38.60874191,177.9136323,1.3829,0.013829000000000001,0.002 - 0.05,2,#eff3ff
434,434,3,2015-02-05,23:02:35,2015p097189,M,4.49,18.7,,13,220.3,182.6,149.9,2.2468,1.8617,1.529,20150205_230240_GKBS_20,GKBS,Kaiti Beach,-38.68217,178.03188,30.0,-38.60874191,177.9136323,2.2468,0.022468,0.002 - 0.05,2,#eff3ff
435,435,4,2015-02-05,23:02:35,2015p097189,M,4.49,18.7,,43,13.9,9.1,7.8,0.1416,0.0925,0.0796,20150205_230246_TBAS_20,TBAS,Tolaga Bay Area School,-38.372803703,178.300778623,8.0,-38.60874191,177.9136323,0.1416,0.001416,0.002,1,#989898
436,436,5,2015-02-05,23:02:35,2015p097189,M,4.49,18.7,,45,18.1,16.0,11.2,0.1848,0.1633,0.1145,20150205_230244_MWZ_20,MWZ,Matawai,-38.334001396,177.527779304,573.0,-38.60874191,177.9136323,0.1848,0.0018479999999999998,0.002,1,#989898
437,437,6,2015-02-05,23:02:35,2015p097189,M,4.49,18.7,,50,3.5,4.6,7.6,0.0359,0.0473,0.077,20150205_230245_KNZ_20,KNZ,Kokohu,-39.021755222,177.673668799,32.0,-38.60874191,177.9136323,0.077,0.00077,0.002,1,#989898
438,438,7,2015-02-05,23:02:35,2015p097189,M,4.49,18.7,,64,13.6,20.1,20.8,0.1387,0.2049,0.2123,20150205_230249_WFSS_20,WFSS,Wairoa Fire Station,-39.035191,177.420807,30.0,-38.60874191,177.9136323,0.2123,0.002123,0.002 - 0.05,2,#eff3ff
439,439,8,2015-02-05,23:02:35,2015p097189,M,4.49,18.7,,67,2.7,6.2,7.5,0.0277,0.0629,0.0769,20150205_230251_PUZ_20,PUZ,Puketiti,-38.071547867,178.257209049,430.0,-38.60874191,177.9136323,0.0769,0.0007689999999999999,0.002,1,#989898
440,440,9,2015-02-05,23:02:35,2015p097189,M,4.49,18.7,,70,26.0,37.1,36.3,0.2649,0.3781,0.3705,20150205_230259_TUDS_20,TUDS,Tuai Power Station,-38.806999851,177.150433088,255.0,-38.60874191,177.9136323,0.3781,0.003781,0.002 - 0.05,2,#eff3ff
441,441,10,2015-02-05,23:02:35,2015p097189,M,4.49,18.7,,80,3.0,5.4,6.3,0.0302,0.0551,0.0642,20150205_230249_URZ_20,URZ,Urewera,-38.259249093,177.110894471,95.0,-38.60874191,177.9136323,0.0642,0.0006419999999999999,0.002,1,#989898
442,442,11,2015-02-05,23:02:35,2015p097189,M,4.49,18.7,,81,12.2,30.4,35.7,0.1245,0.3105,0.3639,20150205_230301_RTZ_20,RTZ,Ruatahuna,-38.61544,176.980518,867.0,-38.60874191,177.9136323,0.3639,0.003639,0.002 - 0.05,2,#eff3ff
443,443,12,2015-02-05,23:02:35,2015p097189,M,4.49,18.7,,97,5.9,17.8,12.7,0.0606,0.1811,0.1295,20150205_230253_MTHZ_20,MTHZ,Maungataniwha,-38.8523,176.8411,620.0,-38.60874191,177.9136323,0.1811,0.0018110000000000001,0.002,1,#989898
444,444,0,2015-02-06,07:15:29,2015p098114,M,4.18,29.0,,24,20.2,59.9,35.5,0.2056,0.6112,0.3624,20150206_071537_TBAS_20,TBAS,Tolaga Bay Area School,-38.372803703,178.300778623,8.0,-38.38997452,178.0308332,0.6112,0.006111999999999999,0.002 - 0.05,2,#eff3ff
445,445,1,2015-02-06,07:15:29,2015p098114,M,4.18,29.0,,28,10.0,15.2,12.8,0.1017,0.1554,0.1303,20150206_071537_GWTS_20,GWTS,Gisborne Waipaoa Water Treatment Plant,-38.625677862,177.921583161,0.0,-38.38997452,178.0308332,0.1554,0.001554,0.002,1,#989898
446,446,2,2015-02-06,07:15:29,2015p098114,M,4.18,29.0,,28,43.7,37.7,30.9,0.4455,0.3842,0.3148,20150206_071537_GHHS_20,GHHS,Gisborne Hospital Hill,-38.64178,178.01772,0.0,-38.38997452,178.0308332,0.4455,0.004455,0.002 - 0.05,2,#eff3ff
447,447,3,2015-02-06,07:15:29,2015p098114,M,4.18,29.0,,31,18.2,26.1,40.6,0.1852,0.2666,0.4142,20150206_071537_GISS_20,GISS,Gisborne 2ZG,-38.666488866,178.022674268,0.0,-38.38997452,178.0308332,0.4142,0.004142,0.002 - 0.05,2,#eff3ff
448,448,4,2015-02-06,07:15:29,2015p098114,M,4.18,29.0,,32,12.8,30.2,29.6,0.1307,0.3075,0.3014,20150206_071537_GKBS_20,GKBS,Kaiti Beach,-38.68217,178.03188,30.0,-38.38997452,178.0308332,0.3075,0.003075,0.002 - 0.05,2,#eff3ff
449,449,5,2015-02-06,07:15:29,2015p098114,M,4.18,29.0,,41,3.0,6.7,7.8,0.0308,0.0682,0.0799,20150206_071545_PUZ_20,PUZ,Puketiti,-38.071547867,178.257209049,430.0,-38.38997452,178.0308332,0.0799,0.000799,0.002,1,#989898
450,450,6,2015-02-06,07:15:29,2015p098114,M,4.18,29.0,,44,22.4,19.9,17.8,0.2288,0.2028,0.1819,20150206_071538_MWZ_20,MWZ,Matawai,-38.334001396,177.527779304,573.0,-38.38997452,178.0308332,0.2288,0.002288,0.002 - 0.05,2,#eff3ff
451,451,7,2015-02-06,07:15:29,2015p098114,M,4.18,29.0,,82,3.4,2.3,2.6,0.0345,0.0231,0.0268,20150206_071544_URZ_20,URZ,Urewera,-38.259249093,177.110894471,95.0,-38.38997452,178.0308332,0.0345,0.00034500000000000004,0.002,1,#989898
452,452,8,2015-02-06,07:15:29,2015p098114,M,4.18,29.0,,89,2.1,3.0,3.8,0.0218,0.0311,0.0391,20150206_071547_TDHS_20,TDHS,Te Araroa District High School,-37.633319923,178.365371742,0.0,-38.38997452,178.0308332,0.0391,0.000391,0.002,1,#989898
453,453,9,2015-02-06,07:15:29,2015p098114,M,4.18,29.0,,95,1.8,7.4,6.2,0.0181,0.0753,0.0637,20150206_071546_RTZ_20,RTZ,Ruatahuna,-38.61544,176.980518,867.0,-38.38997452,178.0308332,0.0753,0.0007530000000000001,0.002,1,#989898
454,454,0,2015-02-16,01:58:51,2015p124547,M,4.21,104.1,,47,20.8,14.5,13.5,0.2123,0.1477,0.1373,20150216_015907_MSZ_20,MSZ,Milford Sound,-44.673333781,167.92639864,55.0,-44.99316789,167.543558,0.2123,0.002123,0.002 - 0.05,2,#eff3ff
455,455,1,2015-02-16,01:58:51,2015p124547,M,4.21,104.1,,49,11.8,24.0,19.2,0.1207,0.2448,0.1962,20150216_015908_TAFS_20,TAFS,Te Anau Fire Station,-45.416673666,167.719111225,0.0,-44.99316789,167.543558,0.2448,0.002448,0.002 - 0.05,2,#eff3ff
456,456,2,2015-02-16,01:58:51,2015p124547,M,4.21,104.1,,61,5.2,17.7,17.5,0.0528,0.1803,0.1784,20150216_015909_MLZ_20,MLZ,Mavora Lakes,-45.366543525,168.118406813,594.0,-44.99316789,167.543558,0.1803,0.001803,0.002,1,#989898
457,457,3,2015-02-16,01:58:51,2015p124547,M,4.21,104.1,,88,43.0,74.0,49.6,0.4388,0.7544,0.5054,20150216_015911_QTPS_20,QTPS,Queenstown Police Station,-45.032155912,168.662886073,327.0,-44.99316789,167.543558,0.7544,0.0075439999999999995,0.002 - 0.05,2,#eff3ff
458,458,4,2015-02-16,01:58:51,2015p124547,M,4.21,104.1,,93,16.4,34.0,25.7,0.1676,0.3465,0.2616,20150216_015911_MOSS_20,MOSS,Mossburn School,-45.667802403,168.237836479,303.0,-44.99316789,167.543558,0.3465,0.0034649999999999998,0.002 - 0.05,2,#eff3ff
459,459,5,2015-02-16,01:58:51,2015p124547,M,4.21,104.1,,105,4.8,6.0,7.1,0.0491,0.0613,0.072,20150216_015926_WHZ_20,WHZ,Wether Hill Road,-45.892427899,167.947031165,345.0,-44.99316789,167.543558,0.072,0.0007199999999999999,0.002,1,#989898
460,460,6,2015-02-16,01:58:51,2015p124547,M,4.21,104.1,,128,12.4,12.8,20.1,0.1265,0.1303,0.2046,20150216_015915_RRKS_20,RRKS,Rarakau,-46.147433733,167.472523158,59.0,-44.99316789,167.543558,0.2046,0.002046,0.002 - 0.05,2,#eff3ff
461,461,7,2015-02-16,01:58:51,2015p124547,M,4.21,104.1,,131,3.2,5.9,7.5,0.0328,0.0604,0.0762,20150216_015933_WNPS_20,WNPS,Wanaka National Park Headquarters,-44.694588118,169.142964415,0.0,-44.99316789,167.543558,0.0762,0.0007620000000000001,0.002,1,#989898
462,462,8,2015-02-16,01:58:51,2015p124547,M,4.21,104.1,,142,31.0,54.7,75.2,0.3162,0.558,0.7665,20150216_015932_NSBS_21,NSBS,Neils Beach,-43.99786,168.660873,8.0,-44.99316789,167.543558,0.7665,0.007665,0.002 - 0.05,2,#eff3ff
463,463,9,2015-02-16,01:58:51,2015p124547,M,4.21,104.1,,172,9.8,14.3,9.4,0.1002,0.1456,0.0961,20150216_015937_HDWS_20,HDWS,Haast DOC Workshop,-43.883006138,169.044147881,20.0,-44.99316789,167.543558,0.1456,0.001456,0.002,1,#989898
464,464,10,2015-02-16,01:58:51,2015p124547,M,4.21,104.1,,220,3.4,6.8,5.2,0.0347,0.0695,0.0528,20150216_015925_BDCS_20,BDCS,Balclutha District Council,-46.249063655,169.719372684,55.0,-44.99316789,167.543558,0.0695,0.0006950000000000001,0.002,1,#989898
465,465,11,2015-02-16,01:58:51,2015p124547,M,4.21,104.1,,244,1.0,1.4,1.1,0.01,0.0138,0.011,20150216_015953_ODZ_20,ODZ,Otahua Downs,-45.043982113,170.644622213,274.0,-44.99316789,167.543558,0.0138,0.000138,0.002,1,#989898
466,466,12,2015-02-16,01:58:51,2015p124547,M,4.21,104.1,,279,2.6,2.1,2.9,0.0264,0.0213,0.0292,20150216_020000_FDCS_20,FDCS,Fairlie District Council Garage,-44.098657034,170.828699884,318.0,-44.99316789,167.543558,0.0292,0.000292,0.002,1,#989898
467,467,13,2015-02-16,01:58:51,2015p124547,M,4.21,104.1,,290,1.4,2.5,2.8,0.0139,0.0258,0.029,20150216_020002_WHAS_20,WHAS,Gaunt Creek,-43.314319211,170.326847608,198.0,-44.99316789,167.543558,0.029,0.00029,0.002,1,#989898
468,468,0,2015-02-17,05:56:55,2015p127696,M,5.22,33.0,,146,6.2,8.2,9.4,0.0636,0.0835,0.0954,20150217_055718_TDHS_20,TDHS,Te Araroa District High School,-37.633319923,178.365371742,0.0,-37.59591675,-179.9790039,0.0954,0.000954,0.002,1,#989898
469,469,1,2015-02-17,05:56:55,2015p127696,M,5.22,33.0,,151,3.3,3.5,9.1,0.0333,0.0358,0.0931,20150217_055718_MXZ_20,MXZ,Matakaoa Point,-37.562258507,178.306631253,106.0,-37.59591675,-179.9790039,0.0931,0.000931,0.002,1,#989898
470,470,2,2015-02-17,05:56:55,2015p127696,M,5.22,33.0,,164,4.8,6.9,6.1,0.0494,0.0706,0.062,20150217_055722_PUZ_20,PUZ,Puketiti,-38.071547867,178.257209049,430.0,-37.59591675,-179.9790039,0.0706,0.0007059999999999999,0.002,1,#989898
471,471,3,2015-02-17,05:56:55,2015p127696,M,5.22,33.0,,212,2.3,3.8,4.4,0.0231,0.0387,0.0446,20150217_055729_GKBS_20,GKBS,Kaiti Beach,-38.68217,178.03188,30.0,-37.59591675,-179.9790039,0.0446,0.000446,0.002,1,#989898
472,472,4,2015-02-17,05:56:55,2015p127696,M,5.22,33.0,,217,1.4,3.7,2.8,0.0145,0.0372,0.029,20150217_055729_GWTS_20,GWTS,Gisborne Waipaoa Water Treatment Plant,-38.625677862,177.921583161,0.0,-37.59591675,-179.9790039,0.0372,0.000372,0.002,1,#989898
473,473,5,2015-02-17,05:56:55,2015p127696,M,5.22,33.0,,266,1.7,4.0,3.8,0.0175,0.0404,0.0386,20150217_055735_URZ_20,URZ,Urewera,-38.259249093,177.110894471,95.0,-37.59591675,-179.9790039,0.0404,0.000404,0.002,1,#989898
474,474,6,2015-02-17,05:56:55,2015p127696,M,5.22,33.0,,290,3.2,9.0,6.8,0.0325,0.0915,0.0694,20150217_055737_RTZ_20,RTZ,Ruatahuna,-38.61544,176.980518,867.0,-37.59591675,-179.9790039,0.0915,0.000915,0.002,1,#989898
475,475,0,2015-02-19,15:10:50,2015p134142,M,4.07,33.0,,265,1.3,3.0,2.0,0.0136,0.0308,0.0204,20150219_151129_RTZ_20,RTZ,Ruatahuna,-38.61544,176.980518,867.0,-37.66193771,179.7554474,0.0308,0.000308,0.002,1,#989898
476,476,0,2015-02-23,10:25:06,2015p144416,M,4.71,24.9,,149,2.1,3.2,4.4,0.0218,0.0324,0.0444,20150223_102545_MXZ_20,MXZ,Matakaoa Point,-37.562258507,178.306631253,106.0,-36.51484632,177.2673601,0.0444,0.000444,0.002,1,#989898
477,477,1,2015-02-23,10:25:06,2015p144416,M,4.71,24.9,,194,1.8,3.1,5.1,0.0179,0.0313,0.0519,20150223_102539_PUZ_20,PUZ,Puketiti,-38.071547867,178.257209049,430.0,-36.51484632,177.2673601,0.0519,0.000519,0.002,1,#989898
478,478,2,2015-02-23,10:25:06,2015p144416,M,4.71,24.9,,194,0.7,2.2,1.8,0.0073,0.0227,0.0184,20150223_102600_URZ_20,URZ,Urewera,-38.259249093,177.110894471,95.0,-36.51484632,177.2673601,0.0227,0.00022700000000000002,0.002,1,#989898
479,479,3,2015-02-23,10:25:06,2015p144416,M,4.71,24.9,,226,2.8,5.2,4.0,0.0287,0.0528,0.0412,20150223_102545_TBAS_20,TBAS,Tolaga Bay Area School,-38.372803703,178.300778623,8.0,-36.51484632,177.2673601,0.0528,0.000528,0.002,1,#989898
480,480,0,2015-02-25,12:29:53,2015p150056,M,4.79,5.0,,81,26.8,43.9,32.1,0.2731,0.4472,0.3276,20150225_123008_TAFS_20,TAFS,Te Anau Fire Station,-45.416673666,167.719111225,0.0,-45.2989502,166.7029266,0.4472,0.004472,0.002 - 0.05,2,#eff3ff
481,481,1,2015-02-25,12:29:53,2015p150056,M,4.79,5.0,,111,4.2,5.5,4.6,0.0432,0.0558,0.047,20150225_123013_MLZ_20,MLZ,Mavora Lakes,-45.366543525,168.118406813,594.0,-45.2989502,166.7029266,0.0558,0.000558,0.002,1,#989898
482,482,2,2015-02-25,12:29:53,2015p150056,M,4.79,5.0,,112,11.1,21.2,18.8,0.1136,0.2159,0.1913,20150225_123015_RRKS_20,RRKS,Rarakau,-46.147433733,167.472523158,59.0,-45.2989502,166.7029266,0.2159,0.002159,0.002 - 0.05,2,#eff3ff
483,483,3,2015-02-25,12:29:53,2015p150056,M,4.79,5.0,,117,7.5,10.8,9.1,0.0765,0.1101,0.0928,20150225_123014_WHZ_20,WHZ,Wether Hill Road,-45.892427899,167.947031165,345.0,-45.2989502,166.7029266,0.1101,0.001101,0.002,1,#989898
484,484,4,2015-02-25,12:29:53,2015p150056,M,4.79,5.0,,119,2.5,4.3,5.4,0.0254,0.0443,0.0553,20150225_123017_MSZ_20,MSZ,Milford Sound,-44.673333781,167.92639864,55.0,-45.2989502,166.7029266,0.0553,0.000553,0.002,1,#989898
485,485,5,2015-02-25,12:29:53,2015p150056,M,4.79,5.0,,127,6.5,5.8,6.6,0.066,0.0587,0.0676,20150225_123015_MOSS_20,MOSS,Mossburn School,-45.667802403,168.237836479,303.0,-45.2989502,166.7029266,0.0676,0.000676,0.002,1,#989898
486,486,6,2015-02-25,12:29:53,2015p150056,M,4.79,5.0,,212,5.4,12.0,14.4,0.0552,0.1223,0.1468,20150225_123033_NSBS_21,NSBS,Neils Beach,-43.99786,168.660873,8.0,-45.2989502,166.7029266,0.1468,0.0014680000000000001,0.002,1,#989898
487,487,0,2015-02-25,12:40:38,2015p150076,M,4.64,21.5,,22,62.5,116.8,134.4,0.6372,1.191,1.3704,20150225_124043_MOLS_20,MOLS,Molesworth Station,-42.088022768,173.2574013,888.0,-41.90830855,173.3541918,1.3704,0.013704000000000001,0.002 - 0.05,2,#eff3ff
488,488,1,2015-02-25,12:40:38,2015p150076,M,4.64,21.5,,41,30.5,68.5,57.2,0.3109,0.6986,0.5834,20150225_124047_THZ_20,THZ,Top House,-41.762474128,172.905218304,747.0,-41.90830855,173.3541918,0.6986,0.006986,0.002 - 0.05,2,#eff3ff
489,489,2,2015-02-25,12:40:38,2015p150076,M,4.64,21.5,,52,13.1,18.6,36.2,0.1339,0.1898,0.3691,20150225_124049_KEKS_20,KEKS,Kekerengu Valley Road,-41.95569,173.98141,339.0,-41.90830855,173.3541918,0.3691,0.003691,0.002 - 0.05,2,#eff3ff
490,490,3,2015-02-25,12:40:38,2015p150076,M,4.64,21.5,,66,6.7,14.3,15.9,0.0679,0.1453,0.1624,20150225_124052_SEDS_20,SEDS,Seddon Fire Station,-41.67229,174.07645,90.0,-41.90830855,173.3541918,0.1624,0.0016239999999999998,0.002,1,#989898
491,491,4,2015-02-25,12:40:38,2015p150076,M,4.64,21.5,,66,5.5,14.0,10.2,0.0562,0.1427,0.1036,20150225_124051_WDFS_20,WDFS,Ward Fire Station,-41.827398743,174.138423708,34.0,-41.90830855,173.3541918,0.1427,0.0014269999999999999,0.002,1,#989898
492,492,5,2015-02-25,12:40:38,2015p150076,M,4.64,21.5,,66,11.1,28.3,23.7,0.1129,0.2888,0.2415,20150225_124100_MGCS_20,MGCS,Blenheim Marlborough Girls College,-41.507680768,173.944392627,9.0,-41.90830855,173.3541918,0.2888,0.002888,0.002 - 0.05,2,#eff3ff
493,493,6,2015-02-25,12:40:38,2015p150076,M,4.64,21.5,,69,18.8,27.4,26.8,0.1918,0.2797,0.2733,20150225_124102_NELS_20,NELS,Nelson Hospital,-41.287804018,173.274245114,52.0,-41.90830855,173.3541918,0.2797,0.002797,0.002 - 0.05,2,#eff3ff
494,494,7,2015-02-25,12:40:38,2015p150076,M,4.64,21.5,,69,13.1,10.8,11.3,0.1338,0.1099,0.1157,20150225_124051_BWRS_20,BWRS,Waikakaho Road,-41.43954404,173.90511789,75.0,-41.90830855,173.3541918,0.1338,0.001338,0.002,1,#989898
495,495,8,2015-02-25,12:40:38,2015p150076,M,4.64,21.5,,77,2.6,4.7,6.2,0.0262,0.0484,0.0636,20150225_124056_NNZ_20,NNZ,Nelson,-41.217102661,173.379476754,130.0,-41.90830855,173.3541918,0.0636,0.0006360000000000001,0.002,1,#989898
496,496,9,2015-02-25,12:40:38,2015p150076,M,4.64,21.5,,79,10.3,27.4,25.1,0.1054,0.2795,0.2559,20150225_124052_HAVS_20,HAVS,Havelock,-41.27227,173.78467,67.0,-41.90830855,173.3541918,0.2795,0.002795,0.002 - 0.05,2,#eff3ff
497,497,10,2015-02-25,12:40:38,2015p150076,M,4.64,21.5,,81,7.9,12.6,11.0,0.0803,0.1289,0.1123,20150225_124052_HSES_20,HSES,Hanmer Springs Emergency Centre,-42.523242237,172.830493814,377.0,-41.90830855,173.3541918,0.1289,0.0012889999999999998,0.002,1,#989898
498,498,11,2015-02-25,12:40:38,2015p150076,M,4.64,21.5,,86,10.4,27.5,18.9,0.1057,0.2807,0.1927,20150225_124108_MCAS_20,MCAS,Murchison Area School,-41.799933511,172.328030808,174.0,-41.90830855,173.3541918,0.2807,0.002807,0.002 - 0.05,2,#eff3ff
499,499,12,2015-02-25,12:40:38,2015p150076,M,4.64,21.5,,89,9.0,26.0,24.9,0.0918,0.2648,0.2538,20150225_124109_QCCS_20,QCCS,Picton Queen Charlotte College,-41.279625689,174.023144608,27.0,-41.90830855,173.3541918,0.2648,0.0026479999999999997,0.002 - 0.05,2,#eff3ff
500,500,13,2015-02-25,12:40:38,2015p150076,M,4.64,21.5,,101,6.1,13.7,14.7,0.0624,0.1396,0.1502,20150225_124057_CECS_20,CECS,Cheviot Emergency Centre,-42.813490547,173.274868178,69.0,-41.90830855,173.3541918,0.1502,0.001502,0.002,1,#989898
501,501,14,2015-02-25,12:40:38,2015p150076,M,4.64,21.5,,108,8.8,7.5,10.8,0.0892,0.0763,0.1103,20150225_124058_SJFS_20,SJFS,Springs Junction Fire Station,-42.334575929,172.180286383,432.0,-41.90830855,173.3541918,0.1103,0.001103,0.002,1,#989898
502,502,15,2015-02-25,12:40:38,2015p150076,M,4.64,21.5,,121,5.0,3.9,6.6,0.0506,0.04,0.0669,20150225_124101_GVZ_20,GVZ,Greta Valley,-42.967365,173.03475,400.5,-41.90830855,173.3541918,0.0669,0.000669,0.002,1,#989898
503,503,16,2015-02-25,12:40:38,2015p150076,M,4.64,21.5,,129,5.6,5.9,6.1,0.0566,0.0603,0.062,20150225_124101_WAKC_20,WAKC,Waikari,-42.963102826,172.705240104,219.0,-41.90830855,173.3541918,0.062,0.00062,0.002,1,#989898
