,Unnamed: 0,Unnamed: 0.1,Earthquake Date (UT),Time (UT),ID,Mag Type,Magnitude,Depth (km),R?,Epic. Dist.(km),PGA Vertical (mm/s/s),PGA Horiz_1 (mm/s/s),PGA Horiz_2 (mm/s/s),PGA Vertical (%g),PGA Horiz_1 (%g),PGA Horiz_2 (%g),Accelerogram ID,Site Code,Name,Site Latitude,Site Longitude,Site Elevation (m),EQ_lat,EQ_lon,max_percent,max pga,pg_bracket,pga_size,color
252,252,11,2015-01-13,11:40:00,2015p033746,M,5.75,82.6,,230,16.4,19.7,24.7,0.1672,0.201,0.2522,20150113_114034_BDCS_20,BDCS,Balclutha District Council,-46.249063655,169.719372684,55.0,-45.68924267,166.8690533,0.2522,0.002522,0.002 - 0.05,2,#eff3ff
253,253,12,2015-01-13,11:40:00,2015p033746,M,5.75,82.6,,235,52.7,100.7,146.9,0.5376,1.0266,1.4978,20150113_114034_NSBS_21,NSBS,Neils Beach,-43.99786,168.660873,8.0,-45.68924267,166.8690533,1.4978,0.014978,0.002 - 0.05,2,#eff3ff
254,254,13,2015-01-13,11:40:00,2015p033746,M,5.75,82.6,,247,37.7,30.4,38.1,0.384,0.3104,0.388,20150113_114101_MECS_20,MECS,Makarora Emergency Centre,-44.230445889,169.232938317,336.0,-45.68924267,166.8690533,0.388,0.00388,0.002 - 0.05,2,#eff3ff
255,255,14,2015-01-13,11:40:00,2015p033746,M,5.75,82.6,,264,28.9,55.2,64.5,0.2946,0.5628,0.6578,20150113_114104_HDWS_20,HDWS,Haast DOC Workshop,-43.883006138,169.044147881,20.0,-45.68924267,166.8690533,0.6578,0.0065780000000000005,0.002 - 0.05,2,#eff3ff
256,256,15,2015-01-13,11:40:00,2015p033746,M,5.75,82.6,,281,10.1,19.9,23.2,0.1029,0.2033,0.2363,20150113_114111_DUNS_20,DUNS,Dunedin Corstorphine Substation,-45.9051559,170.470644903,121.0,-45.68924267,166.8690533,0.2363,0.002363,0.002 - 0.05,2,#eff3ff
257,257,16,2015-01-13,11:40:00,2015p033746,M,5.75,82.6,,283,1.5,0.4,0.5,0.0158,0.0044,0.0047,20150113_114040_DKHS_20,DKHS,Dunedin Kings High School,-45.902225879,170.492935221,0.0,-45.68924267,166.8690533,0.0158,0.00015800000000000002,0.002,1,#989898
258,258,17,2015-01-13,11:40:00,2015p033746,M,5.75,82.6,,299,4.6,6.1,6.5,0.047,0.0624,0.0664,20150113_114111_LBZ_20,LBZ,Lake Benmore,-44.385552844,170.184419859,438.0,-45.68924267,166.8690533,0.0664,0.000664,0.002,1,#989898
259,259,0,2015-01-13,17:12:01,2015p034368,M,4.1,23.0,,22,35.2,56.7,83.6,0.3588,0.5785,0.8523,20150113_171145_MRZ_20,MRZ,Mangatainoka River,-40.66054537,175.578526763,286.0,-40.85066793,175.4944684,0.8523,0.008523,0.002 - 0.05,2,#eff3ff
260,260,1,2015-01-13,17:12:01,2015p034368,M,4.1,23.0,,34,23.2,24.6,24.0,0.2361,0.2504,0.2446,20150113_171146_KIRS_20,KIRS,Kaitoke Kiwi Ranch,-41.076883922,175.230010715,0.0,-40.85066793,175.4944684,0.2504,0.002504,0.002 - 0.05,2,#eff3ff
261,261,2,2015-01-13,17:12:01,2015p034368,M,4.1,23.0,,35,21.6,23.4,20.9,0.2206,0.2388,0.213,20150113_171153_THOB_21,THOB,Te Horo House,-40.789402441,175.092971338,0.0,-40.85066793,175.4944684,0.2388,0.002388,0.002 - 0.05,2,#eff3ff
262,262,3,2015-01-13,17:12:01,2015p034368,M,4.1,23.0,,40,8.4,13.0,22.2,0.0861,0.1326,0.2264,20150113_171148_MAVS_20,MAVS,Martinborough Wines Vineyard,-41.210857507,175.461483109,33.0,-40.85066793,175.4944684,0.2264,0.002264,0.002 - 0.05,2,#eff3ff
263,263,4,2015-01-13,17:12:01,2015p034368,M,4.1,23.0,,45,22.7,25.5,24.3,0.2318,0.2597,0.248,20150113_171148_TOTS_20,TOTS,Totara Park Upper Hutt,-41.10492,175.08539,0.0,-40.85066793,175.4944684,0.2597,0.002597,0.002 - 0.05,2,#eff3ff
264,264,5,2015-01-13,17:12:01,2015p034368,M,4.1,23.0,,46,25.8,55.7,49.5,0.2626,0.568,0.5051,20150113_171149_TRMS_20,TRMS,Tiraumea,-40.671276,175.990997,260.0,-40.85066793,175.4944684,0.568,0.005679999999999999,0.002 - 0.05,2,#eff3ff
265,265,6,2015-01-13,17:12:01,2015p034368,M,4.1,23.0,,47,8.9,8.3,7.0,0.0906,0.0842,0.0715,20150113_171149_UHSS_20,UHSS,Upper Hutt Primary School,-41.12638,175.06509,0.0,-40.85066793,175.4944684,0.0906,0.000906,0.002,1,#989898
266,266,7,2015-01-13,17:12:01,2015p034368,M,4.1,23.0,,49,18.5,19.4,16.4,0.189,0.1974,0.1673,20150113_171151_FXBS_20,FXBS,Foxton Beach School,-40.46136017,175.22603312,0.0,-40.85066793,175.4944684,0.1974,0.001974,0.002,1,#989898
267,267,8,2015-01-13,17:12:01,2015p034368,M,4.1,23.0,,49,10.7,22.3,14.5,0.1087,0.2269,0.1483,20150113_171157_UHCS_20,UHCS,Upper Hutt College,-41.12681462,175.040938121,53.0,-40.85066793,175.4944684,0.2269,0.0022689999999999997,0.002 - 0.05,2,#eff3ff
268,268,9,2015-01-13,17:12:01,2015p034368,M,4.1,23.0,,55,5.1,7.7,7.7,0.0525,0.0783,0.0787,20150113_171157_HSSS_20,HSSS,Lower Hutt Haywards Substation,-41.151935054,174.981477266,0.0,-40.85066793,175.4944684,0.0787,0.000787,0.002,1,#989898
269,269,10,2015-01-13,17:12:01,2015p034368,M,4.1,23.0,,55,13.5,9.9,7.2,0.1379,0.1013,0.0739,20150113_171158_PNMS_20,PNMS,Monrad Intermediate School,-40.36286,175.59311,0.0,-40.85066793,175.4944684,0.1379,0.001379,0.002,1,#989898
270,270,11,2015-01-13,17:12:01,2015p034368,M,4.1,23.0,,58,10.5,9.2,8.6,0.107,0.0936,0.0874,20150113_171150_TAIS_20,TAIS,Taita Central School,-41.18038403,174.954771915,0.0,-40.85066793,175.4944684,0.107,0.00107,0.002,1,#989898
271,271,12,2015-01-13,17:12:01,2015p034368,M,4.1,23.0,,60,8.6,17.8,18.9,0.0876,0.1812,0.1925,20150113_171150_NBSS_20,NBSS,St Bernadette's School,-41.202272,174.953755,0.0,-40.85066793,175.4944684,0.1925,0.001925,0.002,1,#989898
272,272,13,2015-01-13,17:12:01,2015p034368,M,4.1,23.0,,61,5.4,8.3,5.1,0.0548,0.0846,0.0522,20150113_171150_BMTS_20,BMTS,Belmont,-41.191372,174.92603,84.0,-40.85066793,175.4944684,0.0846,0.000846,0.002,1,#989898
273,273,14,2015-01-13,17:12:01,2015p034368,M,4.1,23.0,,61,4.1,6.9,8.1,0.0418,0.0699,0.0822,20150113_171151_FAIS_20,FAIS,Fairfield,-41.2074,174.9401,9999.0,-40.85066793,175.4944684,0.0822,0.0008219999999999999,0.002,1,#989898
274,274,15,2015-01-13,17:12:01,2015p034368,M,4.1,23.0,,61,5.6,12.3,11.4,0.0576,0.1253,0.116,20150113_171201_CPFS_20,CPFS,Castlepoint Fire Station,-40.898762125,176.220963947,9.0,-40.85066793,175.4944684,0.1253,0.001253,0.002,1,#989898
275,275,16,2015-01-13,17:12:01,2015p034368,M,4.1,23.0,,62,5.7,15.0,10.9,0.0586,0.153,0.1109,20150113_171159_LNBS_20,LNBS,Naenae Bowling Club,-41.20498,174.9266,0.0,-40.85066793,175.4944684,0.153,0.00153,0.002,1,#989898
276,276,17,2015-01-13,17:12:01,2015p034368,M,4.1,23.0,,63,10.2,10.3,9.6,0.1039,0.105,0.0981,20150113_171200_WANS_20,WANS,Wainuiomata Hill,-41.23122,174.93102,367.0,-40.85066793,175.4944684,0.105,0.00105,0.002,1,#989898
277,277,18,2015-01-13,17:12:01,2015p034368,M,4.1,23.0,,64,38.2,16.8,27.3,0.3896,0.1715,0.2786,20150113_171151_POKS_20,POKS,Katoa Kindergarten,-41.12495,174.83151,0.0,-40.85066793,175.4944684,0.3896,0.003896,0.002 - 0.05,2,#eff3ff
278,278,19,2015-01-13,17:12:01,2015p034368,M,4.1,23.0,,64,5.4,8.4,12.6,0.0549,0.0857,0.129,20150113_171152_PWES_20,PWES,Porirua West,-41.12746,174.82586,9999.0,-40.85066793,175.4944684,0.129,0.0012900000000000001,0.002,1,#989898
279,279,20,2015-01-13,17:12:01,2015p034368,M,4.1,23.0,,64,4.2,5.8,7.4,0.0426,0.0595,0.0758,20150113_171201_INSS_20,INSS,Lower Hutt GNS Nuclear Sciences,-41.233516778,174.921116168,0.0,-40.85066793,175.4944684,0.0758,0.0007580000000000001,0.002,1,#989898
280,280,21,2015-01-13,17:12:01,2015p034368,M,4.1,23.0,,64,7.3,12.4,8.3,0.0745,0.1264,0.0851,20150113_171151_LIRS_20,LIRS,Lower Hutt IRL,-41.23231,174.91929,0.0,-40.85066793,175.4944684,0.1264,0.0012640000000000001,0.002,1,#989898
281,281,22,2015-01-13,17:12:01,2015p034368,M,4.1,23.0,,65,8.3,6.1,6.8,0.0845,0.0624,0.0695,20150113_171200_LRSS_20,LRSS,Randwick School,-41.2294301,174.90424587,0.0,-40.85066793,175.4944684,0.0845,0.000845,0.002,1,#989898
282,282,23,2015-01-13,17:12:01,2015p034368,M,4.1,23.0,,67,10.0,8.8,10.1,0.1016,0.0894,0.1027,20150113_171235_PVCS_20,PVCS,Petone Victoria Street,-41.22474608,174.87391737,0.0,-40.85066793,175.4944684,0.1027,0.001027,0.002,1,#989898
283,283,24,2015-01-13,17:12:01,2015p034368,M,4.1,23.0,,67,4.1,6.9,6.4,0.0421,0.0705,0.0656,20150113_171151_PHHS_20,PHHS,Point Howard,-41.25209,174.904297,41.0,-40.85066793,175.4944684,0.0705,0.0007049999999999999,0.002,1,#989898
284,284,25,2015-01-13,17:12:01,2015p034368,M,4.1,23.0,,67,4.9,4.4,4.8,0.0502,0.0445,0.0491,20150113_171153_PTOS_20,PTOS,Petone Overbridge,-41.222973,174.860302,9999.0,-40.85066793,175.4944684,0.0502,0.0005020000000000001,0.002,1,#989898
285,285,26,2015-01-13,17:12:01,2015p034368,M,4.1,23.0,,70,11.8,8.8,11.8,0.1208,0.0895,0.12,20150113_171151_SOMS_20,SOMS,Somes Island,-41.25746,174.865,48.0,-40.85066793,175.4944684,0.1208,0.001208,0.002,1,#989898
286,286,27,2015-01-13,17:12:01,2015p034368,M,4.1,23.0,,71,3.2,2.9,3.2,0.0326,0.0297,0.0323,20150113_171202_NEWS_20,NEWS,Newlands,-41.23204,174.82178,218.0,-40.85066793,175.4944684,0.0326,0.00032599999999999996,0.002,1,#989898
287,287,28,2015-01-13,17:12:01,2015p034368,M,4.1,23.0,,78,3.3,4.9,7.2,0.0335,0.0499,0.0736,20150113_171153_WEL_20,WEL,Wellington,-41.284047578,174.768184021,138.0,-40.85066793,175.4944684,0.0736,0.000736,0.002,1,#989898
288,288,29,2015-01-13,17:12:01,2015p034368,M,4.1,23.0,,78,32.8,14.6,21.6,0.3347,0.149,0.2204,20150113_171225_TRTS_20,TRTS,Torrens Terrace Wellington,-41.2987,174.7739,0.0,-40.85066793,175.4944684,0.3347,0.003347,0.002 - 0.05,2,#eff3ff
289,289,30,2015-01-13,17:12:01,2015p034368,M,4.1,23.0,,79,2.7,3.3,5.4,0.0272,0.0336,0.0553,20150113_171204_MKBS_20,MKBS,Makara Bunker,-41.2259,174.6981,231.0,-40.85066793,175.4944684,0.0553,0.000553,0.002,1,#989898
290,290,31,2015-01-13,17:12:01,2015p034368,M,4.1,23.0,,80,5.1,13.3,9.4,0.0522,0.1357,0.0962,20150113_171205_WNKS_20,WNKS,Wellington Karori Normal School,-41.284817534,174.742053687,0.0,-40.85066793,175.4944684,0.1357,0.001357,0.002,1,#989898
291,291,32,2015-01-13,17:12:01,2015p034368,M,4.1,23.0,,81,8.0,10.2,21.6,0.0812,0.1038,0.2202,20150113_171154_MKVS_20,MKVS,Makara Village,-41.26542095,174.70552447,0.0,-40.85066793,175.4944684,0.2202,0.002202,0.002 - 0.05,2,#eff3ff
292,292,33,2015-01-13,17:12:01,2015p034368,M,4.1,23.0,,85,1.9,3.4,2.6,0.0199,0.0343,0.0265,20150113_171205_NWFS_20,NWFS,Ngawi Fire Station,-41.589065731,175.233958687,14.0,-40.85066793,175.4944684,0.0343,0.000343,0.002,1,#989898
293,293,34,2015-01-13,17:12:01,2015p034368,M,4.1,23.0,,96,4.3,8.1,5.2,0.0442,0.0829,0.0531,20150113_171156_TSZ_20,TSZ,Takapari Road,-40.058553101,175.961123866,531.0,-40.85066793,175.4944684,0.0829,0.000829,0.002,1,#989898
294,294,35,2015-01-13,17:12:01,2015p034368,M,4.1,23.0,,109,5.0,5.0,5.9,0.0514,0.0507,0.0606,20150113_171214_WCDS_20,WCDS,Wanganui Civil Defence Store,-39.933638357,175.047992977,9.0,-40.85066793,175.4944684,0.0606,0.000606,0.002,1,#989898
295,295,36,2015-01-13,17:12:01,2015p034368,M,4.1,23.0,,129,4.5,9.1,7.1,0.0455,0.0933,0.0726,20150113_171202_WAZ_20,WAZ,Wanganui,-39.754644424,174.985532904,382.0,-40.85066793,175.4944684,0.0933,0.0009329999999999999,0.002,1,#989898
296,296,37,2015-01-13,17:12:01,2015p034368,M,4.1,23.0,,149,1.2,2.7,2.6,0.0124,0.0278,0.027,20150113_171222_BWRS_20,BWRS,Waikakaho Road,-41.43954404,173.90511789,75.0,-40.85066793,175.4944684,0.0278,0.000278,0.002,1,#989898
297,297,38,2015-01-13,17:12:01,2015p034368,M,4.1,23.0,,151,1.7,4.5,3.3,0.0171,0.0461,0.0333,20150113_171224_HAVS_20,HAVS,Havelock,-41.27227,173.78467,67.0,-40.85066793,175.4944684,0.0461,0.00046100000000000004,0.002,1,#989898
298,298,0,2015-01-16,10:00:16,2015p041667,M,4.02,62.3,,35,43.8,127.9,91.6,0.4463,1.3045,0.9342,20150116_100036_QCCS_20,QCCS,Picton Queen Charlotte College,-41.279625689,174.023144608,27.0,-41.07365115,174.3329402,1.3045,0.013045,0.002 - 0.05,2,#eff3ff
299,299,1,2015-01-16,10:00:16,2015p041667,M,4.02,62.3,,35,14.2,8.4,8.4,0.145,0.0855,0.0856,20150116_100028_MKBS_20,MKBS,Makara Bunker,-41.2259,174.6981,231.0,-41.07365115,174.3329402,0.145,0.00145,0.002,1,#989898
300,300,2,2015-01-16,10:00:16,2015p041667,M,4.02,62.3,,38,36.9,40.6,41.0,0.3763,0.4136,0.4186,20150116_100028_MKVS_20,MKVS,Makara Village,-41.26542095,174.70552447,0.0,-41.07365115,174.3329402,0.4186,0.0041860000000000005,0.002 - 0.05,2,#eff3ff
301,301,3,2015-01-16,10:00:16,2015p041667,M,4.02,62.3,,42,25.4,24.8,24.3,0.2585,0.2525,0.2474,20150116_100028_WNKS_20,WNKS,Wellington Karori Normal School,-41.284817534,174.742053687,0.0,-41.07365115,174.3329402,0.2585,0.002585,0.002 - 0.05,2,#eff3ff
302,302,4,2015-01-16,10:00:16,2015p041667,M,4.02,62.3,,42,14.6,21.8,10.2,0.1491,0.2224,0.1042,20150116_100028_PWES_20,PWES,Porirua West,-41.12746,174.82586,9999.0,-41.07365115,174.3329402,0.2224,0.002224,0.002 - 0.05,2,#eff3ff
303,303,5,2015-01-16,10:00:16,2015p041667,M,4.02,62.3,,42,57.5,49.8,45.7,0.5862,0.5079,0.4662,20150116_100028_POKS_20,POKS,Katoa Kindergarten,-41.12495,174.83151,0.0,-41.07365115,174.3329402,0.5862,0.005862000000000001,0.002 - 0.05,2,#eff3ff
304,304,6,2015-01-16,10:00:16,2015p041667,M,4.02,62.3,,43,18.4,21.0,21.1,0.1872,0.214,0.215,20150116_100028_WEL_20,WEL,Wellington,-41.284047578,174.768184021,138.0,-41.07365115,174.3329402,0.215,0.00215,0.002 - 0.05,2,#eff3ff
305,305,7,2015-01-16,10:00:16,2015p041667,M,4.02,62.3,,44,9.0,14.8,17.6,0.0915,0.1508,0.179,20150116_100037_WEMS_20,WEMS,Wellington Emergency Management Office,-41.27428738,174.779264202,31.0,-41.07365115,174.3329402,0.179,0.00179,0.002,1,#989898
306,306,8,2015-01-16,10:00:16,2015p041667,M,4.02,62.3,,44,14.6,18.2,30.3,0.149,0.1859,0.3094,20150116_100028_BOWS_20,BOWS,Bowen St Turnbull House Wellington,-41.279193,174.776323,0.0,-41.07365115,174.3329402,0.3094,0.003094,0.002 - 0.05,2,#eff3ff
307,307,9,2015-01-16,10:00:16,2015p041667,M,4.02,62.3,,44,15.3,20.1,23.4,0.1555,0.2052,0.2388,20150116_100038_PIPS_20,PIPS,Aotea Quay Pipitea,-41.267486611,174.786068248,0.0,-41.07365115,174.3329402,0.2388,0.002388,0.002 - 0.05,2,#eff3ff
308,308,10,2015-01-16,10:00:16,2015p041667,M,4.02,62.3,,44,12.1,16.9,27.0,0.1233,0.1721,0.2753,20150116_100037_TFSS_20,TFSS,Wellington Thorndon Fire Station,-41.275427415,174.783054245,9.0,-41.07365115,174.3329402,0.2753,0.002753,0.002 - 0.05,2,#eff3ff
309,309,11,2015-01-16,10:00:16,2015p041667,M,4.02,62.3,,44,15.8,10.7,14.8,0.1613,0.1087,0.1505,20150116_100028_CUBS_20,CUBS,Cuba Street,-41.295463,174.774381,0.0,-41.07365115,174.3329402,0.1613,0.001613,0.002,1,#989898
310,310,12,2015-01-16,10:00:16,2015p041667,M,4.02,62.3,,45,12.2,16.2,7.8,0.1247,0.165,0.0797,20150116_100029_NEWS_20,NEWS,Newlands,-41.23204,174.82178,218.0,-41.07365115,174.3329402,0.165,0.00165,0.002,1,#989898
311,311,13,2015-01-16,10:00:16,2015p041667,M,4.02,62.3,,45,18.7,20.6,17.9,0.1902,0.2098,0.1829,20150116_100059_TRTS_20,TRTS,Torrens Terrace Wellington,-41.2987,174.7739,0.0,-41.07365115,174.3329402,0.2098,0.002098,0.002 - 0.05,2,#eff3ff
312,312,14,2015-01-16,10:00:16,2015p041667,M,4.02,62.3,,45,12.8,13.3,17.7,0.1307,0.1356,0.1805,20150116_100029_TEPS_20,TEPS,Wellington Te Papa Museum,-41.290587759,174.781064157,111.0,-41.07365115,174.3329402,0.1805,0.001805,0.002,1,#989898
313,313,15,2015-01-16,10:00:16,2015p041667,M,4.02,62.3,,45,25.3,16.1,14.2,0.258,0.1646,0.1452,20150116_100029_WNHS_20,WNHS,Wellington High School,-41.30077798,174.775514045,43.0,-41.07365115,174.3329402,0.258,0.0025800000000000003,0.002 - 0.05,2,#eff3ff
314,314,16,2015-01-16,10:00:16,2015p041667,M,4.02,62.3,,47,15.6,12.0,17.3,0.159,0.1225,0.1759,20150116_100029_PTOS_20,PTOS,Petone Overbridge,-41.222973,174.860302,9999.0,-41.07365115,174.3329402,0.1759,0.001759,0.002,1,#989898
315,315,17,2015-01-16,10:00:16,2015p041667,M,4.02,62.3,,48,12.1,22.2,20.0,0.1235,0.2266,0.2035,20150116_100103_PVCS_20,PVCS,Petone Victoria Street,-41.22474608,174.87391737,0.0,-41.07365115,174.3329402,0.2266,0.002266,0.002 - 0.05,2,#eff3ff
316,316,18,2015-01-16,10:00:16,2015p041667,M,4.02,62.3,,49,10.8,15.7,15.4,0.11,0.1603,0.1574,20150116_100038_MISS_20,MISS,Wellington Miramar School,-41.314888406,174.818434531,8.0,-41.07365115,174.3329402,0.1603,0.001603,0.002,1,#989898
317,317,19,2015-01-16,10:00:16,2015p041667,M,4.02,62.3,,49,8.5,9.8,12.8,0.0864,0.0999,0.1306,20150116_100039_PGMS_20,PGMS,Petone Municipal Building,-41.224506474,174.879435677,0.0,-41.07365115,174.3329402,0.1306,0.0013059999999999999,0.002,1,#989898
318,318,20,2015-01-16,10:00:16,2015p041667,M,4.02,62.3,,49,19.7,13.2,20.2,0.2004,0.1341,0.2062,20150116_100029_SOMS_20,SOMS,Somes Island,-41.25746,174.865,48.0,-41.07365115,174.3329402,0.2062,0.002062,0.002 - 0.05,2,#eff3ff
319,319,21,2015-01-16,10:00:16,2015p041667,M,4.02,62.3,,51,5.3,15.0,11.9,0.0542,0.153,0.1209,20150116_100029_LRSS_20,LRSS,Randwick School,-41.2294301,174.90424587,0.0,-41.07365115,174.3329402,0.153,0.00153,0.002,1,#989898
320,320,22,2015-01-16,10:00:16,2015p041667,M,4.02,62.3,,51,17.4,32.0,28.1,0.1773,0.3262,0.2863,20150116_100029_HAVS_20,HAVS,Havelock,-41.27227,173.78467,67.0,-41.07365115,174.3329402,0.3262,0.0032619999999999997,0.002 - 0.05,2,#eff3ff
321,321,23,2015-01-16,10:00:16,2015p041667,M,4.02,62.3,,51,7.5,10.0,9.8,0.0763,0.1019,0.0995,20150116_100029_BMTS_20,BMTS,Belmont,-41.191372,174.92603,84.0,-41.07365115,174.3329402,0.1019,0.001019,0.002,1,#989898
322,322,24,2015-01-16,10:00:16,2015p041667,M,4.02,62.3,,52,5.8,7.6,12.4,0.059,0.0774,0.1269,20150116_100029_PHHS_20,PHHS,Point Howard,-41.25209,174.904297,41.0,-41.07365115,174.3329402,0.1269,0.0012690000000000002,0.002,1,#989898
323,323,25,2015-01-16,10:00:16,2015p041667,M,4.02,62.3,,52,6.6,12.8,12.5,0.0677,0.1304,0.1272,20150116_100037_LNBS_20,LNBS,Naenae Bowling Club,-41.20498,174.9266,0.0,-41.07365115,174.3329402,0.1304,0.0013039999999999998,0.002,1,#989898
324,324,26,2015-01-16,10:00:16,2015p041667,M,4.02,62.3,,52,20.4,24.0,21.4,0.2079,0.2452,0.2185,20150116_100038_LIRS_20,LIRS,Lower Hutt IRL,-41.23231,174.91929,0.0,-41.07365115,174.3329402,0.2452,0.002452,0.002 - 0.05,2,#eff3ff
325,325,27,2015-01-16,10:00:16,2015p041667,M,4.02,62.3,,52,5.5,16.3,9.3,0.0563,0.1667,0.0945,20150116_100029_INSS_20,INSS,Lower Hutt GNS Nuclear Sciences,-41.233516778,174.921116168,0.0,-41.07365115,174.3329402,0.1667,0.0016669999999999999,0.002,1,#989898
326,326,28,2015-01-16,10:00:16,2015p041667,M,4.02,62.3,,53,8.9,11.2,13.6,0.0909,0.1139,0.1382,20150116_100029_FAIS_20,FAIS,Fairfield,-41.2074,174.9401,9999.0,-41.07365115,174.3329402,0.1382,0.001382,0.002,1,#989898
327,327,29,2015-01-16,10:00:16,2015p041667,M,4.02,62.3,,53,19.4,40.7,29.3,0.1976,0.4151,0.2987,20150116_100038_WANS_20,WANS,Wainuiomata Hill,-41.23122,174.93102,367.0,-41.07365115,174.3329402,0.4151,0.004151,0.002 - 0.05,2,#eff3ff
328,328,30,2015-01-16,10:00:16,2015p041667,M,4.02,62.3,,53,13.2,25.0,20.9,0.1347,0.2545,0.2131,20150116_100029_EBPS_20,EBPS,Eastbourne Police Station,-41.289428012,174.900235673,0.0,-41.07365115,174.3329402,0.2545,0.002545,0.002 - 0.05,2,#eff3ff
329,329,31,2015-01-16,10:00:16,2015p041667,M,4.02,62.3,,54,7.4,14.1,12.8,0.0751,0.1439,0.1309,20150116_100029_TAIS_20,TAIS,Taita Central School,-41.18038403,174.954771915,0.0,-41.07365115,174.3329402,0.1439,0.001439,0.002,1,#989898
330,330,32,2015-01-16,10:00:16,2015p041667,M,4.02,62.3,,54,17.1,25.7,31.9,0.1742,0.2616,0.3251,20150116_100029_NBSS_20,NBSS,St Bernadette's School,-41.202272,174.953755,0.0,-41.07365115,174.3329402,0.3251,0.003251,0.002 - 0.05,2,#eff3ff
331,331,33,2015-01-16,10:00:16,2015p041667,M,4.02,62.3,,54,12.9,27.7,36.1,0.132,0.2821,0.3678,20150116_100029_BWRS_20,BWRS,Waikakaho Road,-41.43954404,173.90511789,75.0,-41.07365115,174.3329402,0.3678,0.0036780000000000003,0.002 - 0.05,2,#eff3ff
332,332,34,2015-01-16,10:00:16,2015p041667,M,4.02,62.3,,55,7.1,15.9,18.2,0.072,0.1622,0.1853,20150116_100029_HSSS_20,HSSS,Lower Hutt Haywards Substation,-41.151935054,174.981477266,0.0,-41.07365115,174.3329402,0.1853,0.0018529999999999998,0.002,1,#989898
333,333,35,2015-01-16,10:00:16,2015p041667,M,4.02,62.3,,59,19.2,19.4,26.4,0.1959,0.1979,0.2695,20150116_100030_PAPS_20,PAPS,Paraparaumu Primary School,-40.914319724,175.004958529,9.0,-41.07365115,174.3329402,0.2695,0.0026950000000000003,0.002 - 0.05,2,#eff3ff
334,334,36,2015-01-16,10:00:16,2015p041667,M,4.02,62.3,,62,11.3,8.4,11.7,0.1152,0.0856,0.1191,20150116_100030_UHSS_20,UHSS,Upper Hutt Primary School,-41.12638,175.06509,0.0,-41.07365115,174.3329402,0.1191,0.001191,0.002,1,#989898
