,Unnamed: 0,Unnamed: 0.1,Earthquake Date (UT),Time (UT),ID,Mag Type,Magnitude,Depth (km),R?,Epic. Dist.(km),PGA Vertical (mm/s/s),PGA Horiz_1 (mm/s/s),PGA Horiz_2 (mm/s/s),PGA Vertical (%g),PGA Horiz_1 (%g),PGA Horiz_2 (%g),Accelerogram ID,Site Code,Name,Site Latitude,Site Longitude,Site Elevation (m),EQ_lat,EQ_lon,max_percent,max pga,pg_bracket,pga_size,color
335,335,37,2015-01-16,10:00:16,2015p041667,M,4.02,62.3,,63,6.6,8.6,7.9,0.0675,0.088,0.0806,20150116_100030_TOTS_20,TOTS,Totara Park Upper Hutt,-41.10492,175.08539,0.0,-41.07365115,174.3329402,0.088,0.0008799999999999999,0.002,1,#989898
336,336,38,2015-01-16,10:00:16,2015p041667,M,4.02,62.3,,70,1.6,3.6,4.6,0.016,0.0371,0.0474,20150116_100042_SEDS_20,SEDS,Seddon Fire Station,-41.67229,174.07645,90.0,-41.07365115,174.3329402,0.0474,0.000474,0.002,1,#989898
337,337,39,2015-01-16,10:00:16,2015p041667,M,4.02,62.3,,71,11.3,22.2,21.2,0.115,0.2265,0.2162,20150116_100043_THOB_21,THOB,Te Horo House,-40.789402441,175.092971338,0.0,-41.07365115,174.3329402,0.2265,0.002265,0.002 - 0.05,2,#eff3ff
338,338,40,2015-01-16,10:00:16,2015p041667,M,4.02,62.3,,75,6.7,9.3,9.3,0.0685,0.0953,0.0946,20150116_100032_KIRS_20,KIRS,Kaitoke Kiwi Ranch,-41.076883922,175.230010715,0.0,-41.07365115,174.3329402,0.0953,0.000953,0.002,1,#989898
339,339,41,2015-01-16,10:00:16,2015p041667,M,4.02,62.3,,82,1.9,2.2,2.7,0.0198,0.0226,0.0271,20150116_100033_NNZ_20,NNZ,Nelson,-41.217102661,173.379476754,130.0,-41.07365115,174.3329402,0.0271,0.000271,0.002,1,#989898
340,340,42,2015-01-16,10:00:16,2015p041667,M,4.02,62.3,,85,1.4,1.8,2.0,0.0143,0.0185,0.0206,20150116_100046_WDFS_20,WDFS,Ward Fire Station,-41.827398743,174.138423708,34.0,-41.07365115,174.3329402,0.0206,0.000206,0.002,1,#989898
341,341,43,2015-01-16,10:00:16,2015p041667,M,4.02,62.3,,95,25.5,7.4,15.0,0.26,0.0758,0.1532,20150116_100033_NWFS_20,NWFS,Ngawi Fire Station,-41.589065731,175.233958687,14.0,-41.07365115,174.3329402,0.26,0.0026,0.002 - 0.05,2,#eff3ff
342,342,44,2015-01-16,10:00:16,2015p041667,M,4.02,62.3,,96,3.0,4.2,6.6,0.0307,0.0433,0.0671,20150116_100046_MAVS_20,MAVS,Martinborough Wines Vineyard,-41.210857507,175.461483109,33.0,-41.07365115,174.3329402,0.0671,0.000671,0.002,1,#989898
343,343,45,2015-01-16,10:00:16,2015p041667,M,4.02,62.3,,102,10.8,14.2,15.2,0.1105,0.1443,0.1547,20150116_100049_FXBS_20,FXBS,Foxton Beach School,-40.46136017,175.22603312,0.0,-41.07365115,174.3329402,0.1547,0.001547,0.002,1,#989898
344,344,46,2015-01-16,10:00:16,2015p041667,M,4.02,62.3,,111,1.5,2.9,2.7,0.015,0.0297,0.0279,20150116_100050_WRCS_20,WRCS,Masterton Wairarapa College,-40.950352011,175.647816501,120.0,-41.07365115,174.3329402,0.0297,0.000297,0.002,1,#989898
345,345,47,2015-01-16,10:00:16,2015p041667,M,4.02,62.3,,115,3.4,5.4,4.3,0.0346,0.0551,0.0434,20150116_100034_MRZ_20,MRZ,Mangatainoka River,-40.66054537,175.578526763,286.0,-41.07365115,174.3329402,0.0551,0.0005510000000000001,0.002,1,#989898
346,346,48,2015-01-16,10:00:16,2015p041667,M,4.02,62.3,,140,3.0,3.0,2.8,0.0304,0.0309,0.0287,20150116_100057_WCDS_20,WCDS,Wanganui Civil Defence Store,-39.933638357,175.047992977,9.0,-41.07365115,174.3329402,0.0309,0.00030900000000000003,0.002,1,#989898
347,347,49,2015-01-16,10:00:16,2015p041667,M,4.02,62.3,,147,5.0,9.4,8.7,0.0511,0.0956,0.0887,20150116_100056_TRMS_20,TRMS,Tiraumea,-40.671276,175.990997,260.0,-41.07365115,174.3329402,0.0956,0.000956,0.002,1,#989898
348,348,50,2015-01-16,10:00:16,2015p041667,M,4.02,62.3,,153,1.4,2.4,2.7,0.0143,0.0241,0.0272,20150116_100059_WDPS_20,WDPS,Woodville Police Station,-40.338218939,175.869801664,90.0,-41.07365115,174.3329402,0.0272,0.000272,0.002,1,#989898
349,349,51,2015-01-16,10:00:16,2015p041667,M,4.02,62.3,,156,3.0,4.0,3.9,0.031,0.0407,0.0399,20150116_100041_KHLS_20,KHLS,Kaihoka Lakes,-40.55704,172.61189,66.0,-41.07365115,174.3329402,0.0407,0.000407,0.002,1,#989898
350,350,52,2015-01-16,10:00:16,2015p041667,M,4.02,62.3,,157,1.5,3.9,2.8,0.0153,0.0395,0.0281,20150116_100103_WAZ_20,WAZ,Wanganui,-39.754644424,174.985532904,382.0,-41.07365115,174.3329402,0.0395,0.000395,0.002,1,#989898
351,351,53,2015-01-16,10:00:16,2015p041667,M,4.02,62.3,,160,1.3,2.5,2.9,0.0136,0.0251,0.03,20150116_100100_CPFS_20,CPFS,Castlepoint Fire Station,-40.898762125,176.220963947,9.0,-41.07365115,174.3329402,0.03,0.0003,0.002,1,#989898
352,352,54,2015-01-16,10:00:16,2015p041667,M,4.02,62.3,,211,1.9,1.4,1.4,0.0191,0.0145,0.0147,20150116_100110_PGFS_20,PGFS,Porangahau Fire Station,-40.302199783,176.611751099,15.0,-41.07365115,174.3329402,0.0191,0.00019099999999999998,0.002,1,#989898
353,353,55,2015-01-16,10:00:16,2015p041667,M,4.02,62.3,,228,0.4,1.2,1.3,0.0045,0.0125,0.0128,20150116_100115_WPWS_20,WPWS,Waipawa District Council,-39.943862017,176.584322066,140.0,-41.07365115,174.3329402,0.0128,0.000128,0.002,1,#989898
354,354,0,2015-01-26,10:49:48,2015p068787,M,4.03,150.5,,89,1.7,3.8,3.0,0.0178,0.0388,0.0306,20150126_105030_HWHS_20,HWHS,Hawera High School,-39.585139189,174.274244785,0.0,-40.28758616,173.7796972,0.0388,0.000388,0.002,1,#989898
355,355,1,2015-01-26,10:49:48,2015p068787,M,4.03,150.5,,93,0.9,1.9,1.4,0.0088,0.0195,0.0146,20150126_105030_OPSS_20,OPSS,Opunake Primary School,-39.45002,173.85502,0.0,-40.28758616,173.7796972,0.0195,0.000195,0.002,1,#989898
356,356,2,2015-01-26,10:49:48,2015p068787,M,4.03,150.5,,104,2.2,2.0,4.1,0.0225,0.0207,0.0417,20150126_105031_KHLS_20,KHLS,Kaihoka Lakes,-40.55704,172.61189,66.0,-40.28758616,173.7796972,0.0417,0.000417,0.002,1,#989898
357,357,3,2015-01-26,10:49:48,2015p068787,M,4.03,150.5,,109,2.6,2.6,3.2,0.027,0.0264,0.033,20150126_105032_NNZ_20,NNZ,Nelson,-41.217102661,173.379476754,130.0,-40.28758616,173.7796972,0.033,0.00033,0.002,1,#989898
358,358,4,2015-01-26,10:49:48,2015p068787,M,4.03,150.5,,109,7.3,5.8,6.4,0.0741,0.0593,0.0656,20150126_105014_HAVS_20,HAVS,Havelock,-41.27227,173.78467,67.0,-40.28758616,173.7796972,0.0741,0.000741,0.002,1,#989898
359,359,5,2015-01-26,10:49:48,2015p068787,M,4.03,150.5,,115,2.1,4.5,3.1,0.0218,0.0456,0.032,20150126_105033_WCDS_20,WCDS,Wanganui Civil Defence Store,-39.933638357,175.047992977,9.0,-40.28758616,173.7796972,0.0456,0.000456,0.002,1,#989898
360,360,6,2015-01-26,10:49:48,2015p068787,M,4.03,150.5,,119,2.0,4.3,3.0,0.0202,0.0441,0.0306,20150126_105035_WAZ_20,WAZ,Wanganui,-39.754644424,174.985532904,382.0,-40.28758616,173.7796972,0.0441,0.000441,0.002,1,#989898
361,361,7,2015-01-26,10:49:48,2015p068787,M,4.03,150.5,,124,4.0,4.8,7.2,0.0406,0.0491,0.0733,20150126_105034_FXBS_20,FXBS,Foxton Beach School,-40.46136017,175.22603312,0.0,-40.28758616,173.7796972,0.0733,0.000733,0.002,1,#989898
362,362,8,2015-01-26,10:49:48,2015p068787,M,4.03,150.5,,125,12.1,4.5,3.2,0.1237,0.0455,0.0324,20150126_105017_PAPS_20,PAPS,Paraparaumu Primary School,-40.914319724,175.004958529,9.0,-40.28758616,173.7796972,0.1237,0.001237,0.002,1,#989898
363,363,9,2015-01-26,10:49:48,2015p068787,M,4.03,150.5,,128,6.9,6.9,5.6,0.0703,0.0701,0.0567,20150126_105016_BWRS_20,BWRS,Waikakaho Road,-41.43954404,173.90511789,75.0,-40.28758616,173.7796972,0.0703,0.0007030000000000001,0.002,1,#989898
364,364,10,2015-01-26,10:49:48,2015p068787,M,4.03,150.5,,129,3.9,1.6,1.8,0.0403,0.016,0.0189,20150126_105034_PWES_20,PWES,Porirua West,-41.12746,174.82586,9999.0,-40.28758616,173.7796972,0.0403,0.00040300000000000004,0.002,1,#989898
365,365,11,2015-01-26,10:49:48,2015p068787,M,4.03,150.5,,130,5.2,2.3,2.8,0.0533,0.0238,0.0284,20150126_105015_MKBS_20,MKBS,Makara Bunker,-41.2259,174.6981,231.0,-40.28758616,173.7796972,0.0533,0.000533,0.002,1,#989898
366,366,12,2015-01-26,10:49:48,2015p068787,M,4.03,150.5,,134,3.2,4.0,5.3,0.0323,0.0407,0.0543,20150126_105016_MKVS_20,MKVS,Makara Village,-41.26542095,174.70552447,0.0,-40.28758616,173.7796972,0.0543,0.000543,0.002,1,#989898
367,367,13,2015-01-26,10:49:48,2015p068787,M,4.03,150.5,,137,2.1,1.5,1.3,0.0214,0.0156,0.0128,20150126_105017_NEWS_20,NEWS,Newlands,-41.23204,174.82178,218.0,-40.28758616,173.7796972,0.0214,0.000214,0.002,1,#989898
368,368,14,2015-01-26,10:49:48,2015p068787,M,4.03,150.5,,137,6.6,4.1,3.0,0.0669,0.0413,0.0309,20150126_105016_WNKS_20,WNKS,Wellington Karori Normal School,-41.284817534,174.742053687,0.0,-40.28758616,173.7796972,0.0669,0.000669,0.002,1,#989898
369,369,15,2015-01-26,10:49:48,2015p068787,M,4.03,150.5,,138,2.7,2.2,2.6,0.0276,0.0225,0.0266,20150126_105016_PTOS_20,PTOS,Petone Overbridge,-41.222973,174.860302,9999.0,-40.28758616,173.7796972,0.0276,0.000276,0.002,1,#989898
370,370,16,2015-01-26,10:49:48,2015p068787,M,4.03,150.5,,139,5.7,3.6,3.4,0.0584,0.0364,0.0347,20150126_105016_BOWS_20,BOWS,Bowen St Turnbull House Wellington,-41.279193,174.776323,0.0,-40.28758616,173.7796972,0.0584,0.000584,0.002,1,#989898
371,371,17,2015-01-26,10:49:48,2015p068787,M,4.03,150.5,,139,9.4,4.5,5.2,0.0958,0.0463,0.0534,20150126_105016_WEL_20,WEL,Wellington,-41.284047578,174.768184021,138.0,-40.28758616,173.7796972,0.0958,0.000958,0.002,1,#989898
372,372,18,2015-01-26,10:49:48,2015p068787,M,4.03,150.5,,139,4.2,2.9,10.5,0.0429,0.0301,0.107,20150126_105016_VUWS_20,VUWS,Victoria University Law School,-41.279854,174.778399,0.0,-40.28758616,173.7796972,0.107,0.00107,0.002,1,#989898
373,373,19,2015-01-26,10:49:48,2015p068787,M,4.03,150.5,,139,5.1,3.5,2.8,0.0522,0.0355,0.0285,20150126_105049_PVCS_20,PVCS,Petone Victoria Street,-41.22474608,174.87391737,0.0,-40.28758616,173.7796972,0.0522,0.000522,0.002,1,#989898
374,374,20,2015-01-26,10:49:48,2015p068787,M,4.03,150.5,,139,4.1,2.3,1.8,0.0419,0.0231,0.0188,20150126_105016_BMTS_20,BMTS,Belmont,-41.191372,174.92603,84.0,-40.28758616,173.7796972,0.0419,0.000419,0.002,1,#989898
375,375,21,2015-01-26,10:49:48,2015p068787,M,4.03,150.5,,140,6.1,1.3,1.6,0.0622,0.0128,0.0167,20150126_105016_CUBS_20,CUBS,Cuba Street,-41.295463,174.774381,0.0,-40.28758616,173.7796972,0.0622,0.0006219999999999999,0.002,1,#989898
376,376,22,2015-01-26,10:49:48,2015p068787,M,4.03,150.5,,140,5.2,2.6,2.9,0.0528,0.0265,0.0294,20150126_105046_TRTS_20,TRTS,Torrens Terrace Wellington,-41.2987,174.7739,0.0,-40.28758616,173.7796972,0.0528,0.000528,0.002,1,#989898
377,377,23,2015-01-26,10:49:48,2015p068787,M,4.03,150.5,,141,8.1,2.4,2.0,0.0823,0.0247,0.02,20150126_105016_LRSS_20,LRSS,Randwick School,-41.2294301,174.90424587,0.0,-40.28758616,173.7796972,0.0823,0.000823,0.002,1,#989898
378,378,24,2015-01-26,10:49:48,2015p068787,M,4.03,150.5,,141,5.4,7.9,6.4,0.0554,0.0802,0.0657,20150126_105016_SOMS_20,SOMS,Somes Island,-41.25746,174.865,48.0,-40.28758616,173.7796972,0.0802,0.000802,0.002,1,#989898
379,379,25,2015-01-26,10:49:48,2015p068787,M,4.03,150.5,,142,5.8,3.0,2.2,0.059,0.0307,0.0227,20150126_105016_FAIS_20,FAIS,Fairfield,-41.2074,174.9401,9999.0,-40.28758616,173.7796972,0.059,0.0005899999999999999,0.002,1,#989898
380,380,26,2015-01-26,10:49:48,2015p068787,M,4.03,150.5,,142,6.0,6.2,4.5,0.0615,0.0637,0.0463,20150126_105016_NBSS_20,NBSS,St Bernadette's School,-41.202272,174.953755,0.0,-40.28758616,173.7796972,0.0637,0.0006370000000000001,0.002,1,#989898
381,381,27,2015-01-26,10:49:48,2015p068787,M,4.03,150.5,,143,4.3,2.1,2.2,0.044,0.0209,0.0222,20150126_105016_TOTS_20,TOTS,Totara Park Upper Hutt,-41.10492,175.08539,0.0,-40.28758616,173.7796972,0.044,0.00043999999999999996,0.002,1,#989898
382,382,28,2015-01-26,10:49:48,2015p068787,M,4.03,150.5,,143,4.5,2.6,2.7,0.0462,0.0267,0.0279,20150126_105017_PHHS_20,PHHS,Point Howard,-41.25209,174.904297,41.0,-40.28758616,173.7796972,0.0462,0.00046199999999999995,0.002,1,#989898
383,383,29,2015-01-26,10:49:48,2015p068787,M,4.03,150.5,,146,12.4,2.7,2.8,0.1268,0.0271,0.0286,20150126_105016_SEAS_20,SEAS,"Seatoun School, Wellington",-41.326447,174.837638,0.0,-40.28758616,173.7796972,0.1268,0.001268,0.002,1,#989898
384,384,30,2015-01-26,10:49:48,2015p068787,M,4.03,150.5,,146,14.8,6.2,5.8,0.1506,0.063,0.0591,20150126_105016_EBPS_20,EBPS,Eastbourne Police Station,-41.289428012,174.900235673,0.0,-40.28758616,173.7796972,0.1506,0.0015060000000000002,0.002,1,#989898
385,385,31,2015-01-26,10:49:48,2015p068787,M,4.03,150.5,,151,3.3,4.8,3.8,0.0342,0.0489,0.039,20150126_105018_KIRS_20,KIRS,Kaitoke Kiwi Ranch,-41.076883922,175.230010715,0.0,-40.28758616,173.7796972,0.0489,0.000489,0.002,1,#989898
386,386,32,2015-01-26,10:49:48,2015p068787,M,4.03,150.5,,154,1.7,4.2,5.1,0.0169,0.0426,0.0519,20150126_105017_VRZ_20,VRZ,Vera Road,-39.12434088,174.758452563,166.0,-40.28758616,173.7796972,0.0519,0.000519,0.002,1,#989898
387,387,33,2015-01-26,10:49:48,2015p068787,M,4.03,150.5,,154,4.3,4.7,4.2,0.0438,0.0477,0.0428,20150126_105038_PNMS_20,PNMS,Monrad Intermediate School,-40.36286,175.59311,0.0,-40.28758616,173.7796972,0.0477,0.000477,0.002,1,#989898
388,388,34,2015-01-26,10:49:48,2015p068787,M,4.03,150.5,,156,1.5,2.0,2.6,0.0155,0.0206,0.0269,20150126_105041_SEDS_20,SEDS,Seddon Fire Station,-41.67229,174.07645,90.0,-40.28758616,173.7796972,0.0269,0.000269,0.002,1,#989898
389,389,35,2015-01-26,10:49:48,2015p068787,M,4.03,150.5,,158,1.2,8.9,3.3,0.0118,0.0904,0.0334,20150126_105040_PNRS_20,PNRS,Palmerston North Roslyn School,-40.33027,175.6337,0.0,-40.28758616,173.7796972,0.0904,0.000904,0.002,1,#989898
390,390,36,2015-01-26,10:49:48,2015p068787,M,4.03,150.5,,158,1.0,2.0,2.1,0.0101,0.0203,0.021,20150126_105039_MRZ_20,MRZ,Mangatainoka River,-40.66054537,175.578526763,286.0,-40.28758616,173.7796972,0.021,0.00021,0.002,1,#989898
391,391,37,2015-01-26,10:49:48,2015p068787,M,4.03,150.5,,174,1.0,1.9,1.6,0.0098,0.0197,0.0167,20150126_105042_WRCS_20,WRCS,Masterton Wairarapa College,-40.950352011,175.647816501,120.0,-40.28758616,173.7796972,0.0197,0.000197,0.002,1,#989898
392,392,38,2015-01-26,10:49:48,2015p068787,M,4.03,150.5,,175,3.7,2.3,3.4,0.0374,0.0239,0.0351,20150126_105041_MAVS_20,MAVS,Martinborough Wines Vineyard,-41.210857507,175.461483109,33.0,-40.28758616,173.7796972,0.0374,0.00037400000000000004,0.002,1,#989898
393,393,39,2015-01-26,10:49:48,2015p068787,M,4.03,150.5,,180,0.7,1.2,1.2,0.0068,0.0123,0.0127,20150126_105044_THZ_20,THZ,Top House,-41.762474128,172.905218304,747.0,-40.28758616,173.7796972,0.0127,0.000127,0.002,1,#989898
394,394,40,2015-01-26,10:49:48,2015p068787,M,4.03,150.5,,189,2.8,2.2,2.7,0.0283,0.0222,0.0278,20150126_105043_NWFS_20,NWFS,Ngawi Fire Station,-41.589065731,175.233958687,14.0,-40.28758616,173.7796972,0.0283,0.000283,0.002,1,#989898
395,395,41,2015-01-26,10:49:48,2015p068787,M,4.03,150.5,,192,6.7,14.2,9.7,0.0687,0.1448,0.0993,20150126_105043_TRMS_20,TRMS,Tiraumea,-40.671276,175.990997,260.0,-40.28758616,173.7796972,0.1448,0.001448,0.002,1,#989898
396,396,42,2015-01-26,10:49:48,2015p068787,M,4.03,150.5,,218,1.6,3.6,2.7,0.016,0.0368,0.0278,20150126_105049_CPFS_20,CPFS,Castlepoint Fire Station,-40.898762125,176.220963947,9.0,-40.28758616,173.7796972,0.0368,0.000368,0.002,1,#989898
397,397,43,2015-01-26,10:49:48,2015p068787,M,4.03,150.5,,232,0.5,1.1,1.2,0.0054,0.0113,0.0118,20150126_105052_DSZ_20,DSZ,Denniston North,-41.744960821,171.804614445,650.0,-40.28758616,173.7796972,0.0118,0.000118,0.002,1,#989898
398,398,44,2015-01-26,10:49:48,2015p068787,M,4.03,150.5,,241,1.3,1.9,2.2,0.0134,0.0191,0.0224,20150126_105052_PGFS_20,PGFS,Porangahau Fire Station,-40.302199783,176.611751099,15.0,-40.28758616,173.7796972,0.0224,0.000224,0.002,1,#989898
399,399,45,2015-01-26,10:49:48,2015p068787,M,4.03,150.5,,284,1.0,2.5,3.6,0.0099,0.0259,0.0371,20150126_105101_CECS_20,CECS,Cheviot Emergency Centre,-42.813490547,173.274868178,69.0,-40.28758616,173.7796972,0.0371,0.000371,0.002,1,#989898
400,400,0,2015-01-29,03:14:15,2015p076040,M,4.04,6.5,,115,0.7,2.3,1.5,0.0072,0.0239,0.0158,20150129_031452_WPWS_20,WPWS,Waipawa District Council,-39.943862017,176.584322066,140.0,-39.26991928,175.571025,0.0239,0.000239,0.002,1,#989898
401,401,1,2015-01-29,03:14:15,2015p076040,M,4.04,6.5,,118,1.3,14.9,1.7,0.0134,0.1521,0.0173,20150129_031501_PNRS_20,PNRS,Palmerston North Roslyn School,-40.33027,175.6337,0.0,-39.26991928,175.571025,0.1521,0.0015210000000000002,0.002,1,#989898
402,402,2,2015-01-29,03:14:15,2015p076040,M,4.04,6.5,,145,2.9,1.8,2.1,0.03,0.0187,0.021,20150129_031504_PGFS_20,PGFS,Porangahau Fire Station,-40.302199783,176.611751099,15.0,-39.26991928,175.571025,0.03,0.0003,0.002,1,#989898
403,403,0,2015-01-30,21:38:21,2015p080815,M,4.12,5.0,,25,7.6,8.8,20.8,0.0775,0.0894,0.2122,20150130_213826_LTZ_20,LTZ,Lake Taylor Station,-42.781667157,172.27103538,648.0,-42.96938705,172.0918427,0.2122,0.002122,0.002 - 0.05,2,#eff3ff
404,404,1,2015-01-30,21:38:21,2015p080815,M,4.12,5.0,,38,6.5,10.1,16.3,0.066,0.1026,0.1662,20150130_213829_SMHS_20,SMHS,Summerhill,-43.26216,172.33463,181.0,-42.96938705,172.0918427,0.1662,0.0016619999999999998,0.002,1,#989898
405,405,2,2015-01-30,21:38:21,2015p080815,M,4.12,5.0,,40,8.0,9.3,7.9,0.0816,0.095,0.0801,20150130_213828_OXZ_20,OXZ,Oxford,-43.3259,172.0383,360.0,-42.96938705,172.0918427,0.095,0.00095,0.002,1,#989898
406,406,3,2015-01-30,21:38:21,2015p080815,M,4.12,5.0,,41,5.6,13.4,11.6,0.057,0.1365,0.1182,20150130_213831_CSHS_20,CSHS,Castle Hill Station,-43.226526873,171.723556103,731.0,-42.96938705,172.0918427,0.1365,0.0013650000000000001,0.002,1,#989898
407,407,4,2015-01-30,21:38:21,2015p080815,M,4.12,5.0,,43,6.0,6.0,5.3,0.0607,0.061,0.054,20150130_213828_APPS_20,APPS,Arthurs Pass Police Station,-42.948949444,171.567735496,743.0,-42.96938705,172.0918427,0.061,0.00061,0.002,1,#989898
408,408,5,2015-01-30,21:38:21,2015p080815,M,4.12,5.0,,43,10.5,11.4,14.1,0.1072,0.1159,0.1433,20150130_213829_SPRS_20,SPRS,Springfield Volunteer Fire Station,-43.3368,171.93008,9999.0,-42.96938705,172.0918427,0.1433,0.001433,0.002,1,#989898
409,409,6,2015-01-30,21:38:21,2015p080815,M,4.12,5.0,,44,3.0,14.9,6.1,0.0311,0.1516,0.0627,20150130_213836_KOWC_20,KOWC,Kowai,-43.32146,171.85485,0.0,-42.96938705,172.0918427,0.1516,0.0015160000000000002,0.002,1,#989898
410,410,7,2015-01-30,21:38:21,2015p080815,M,4.12,5.0,,50,4.7,6.0,8.0,0.048,0.0612,0.0815,20150130_213830_WAKC_20,WAKC,Waikari,-42.963102826,172.705240104,219.0,-42.96938705,172.0918427,0.0815,0.0008150000000000001,0.002,1,#989898
411,411,8,2015-01-30,21:38:21,2015p080815,M,4.12,5.0,,54,9.6,15.0,14.1,0.0977,0.1531,0.1438,20150130_213838_GLWS_20,GLWS,Glyn Wye,-42.59417315,172.511049373,445.0,-42.96938705,172.0918427,0.1531,0.0015310000000000002,0.002,1,#989898
412,412,9,2015-01-30,21:38:21,2015p080815,M,4.12,5.0,,57,6.7,14.8,18.3,0.0682,0.1507,0.1867,20150130_213831_WCSS_20,WCSS,Whitecliffs,-43.45775,171.86346,0.0,-42.96938705,172.0918427,0.1867,0.001867,0.002,1,#989898
413,413,10,2015-01-30,21:38:21,2015p080815,M,4.12,5.0,,65,7.5,42.6,48.3,0.0763,0.4342,0.4927,20150130_213833_KPOC_20,KPOC,Kaiapoi North School,-43.376463195,172.66376756,0.0,-42.96938705,172.0918427,0.4927,0.004927,0.002 - 0.05,2,#eff3ff
414,414,11,2015-01-30,21:38:21,2015p080815,M,4.12,5.0,,70,8.2,7.7,9.4,0.0836,0.0785,0.0963,20150130_213835_OHSS_20,OHSS,Ouruhia School,-43.4446,172.6605,0.0,-42.96938705,172.0918427,0.0963,0.000963,0.002,1,#989898
415,415,12,2015-01-30,21:38:21,2015p080815,M,4.12,5.0,,72,5.3,11.6,12.1,0.0536,0.1181,0.1233,20150130_213846_TPLC_20,TPLC,Templeton School,-43.549997156,172.471954205,0.0,-42.96938705,172.0918427,0.1233,0.0012330000000000002,0.002,1,#989898
416,416,13,2015-01-30,21:38:21,2015p080815,M,4.12,5.0,,73,2.0,2.3,2.6,0.0206,0.0232,0.0265,20150130_213834_ROLC_20,ROLC,Rolleston School,-43.592818023,172.381092806,0.0,-42.96938705,172.0918427,0.0265,0.000265,0.002,1,#989898
417,417,14,2015-01-30,21:38:21,2015p080815,M,4.12,5.0,,74,3.3,10.1,5.4,0.0341,0.1034,0.0546,20150130_213836_MTHS_20,MTHS,Methven North,-43.563194,171.666362,410.0,-42.96938705,172.0918427,0.1034,0.001034,0.002,1,#989898
418,418,15,2015-01-30,21:38:21,2015p080815,M,4.12,5.0,,75,9.6,3.9,7.2,0.0979,0.0401,0.0735,20150130_213844_ARPS_20,ARPS,Arnold River Power Station,-42.523958469,171.407865584,0.0,-42.96938705,172.0918427,0.0979,0.000979,0.002,1,#989898
419,419,16,2015-01-30,21:38:21,2015p080815,M,4.12,5.0,,76,3.2,11.9,10.5,0.0327,0.1217,0.1073,20150130_213847_KILS_20,KILS,Kilmore St Christchurch,-43.52687,172.64058,0.0,-42.96938705,172.0918427,0.1217,0.001217,0.002,1,#989898
