,Unnamed: 0,Unnamed: 0.1,Earthquake Date (UT),Time (UT),ID,Mag Type,Magnitude,Depth (km),R?,Epic. Dist.(km),PGA Vertical (mm/s/s),PGA Horiz_1 (mm/s/s),PGA Horiz_2 (mm/s/s),PGA Vertical (%g),PGA Horiz_1 (%g),PGA Horiz_2 (%g),Accelerogram ID,Site Code,Name,Site Latitude,Site Longitude,Site Elevation (m),EQ_lat,EQ_lon,max_percent,max pga,pg_bracket,pga_size,color
168,168,8,2015-01-06,04:04:57,2015p013973,M,4.83,5.0,,54,17.6,14.5,13.5,0.1797,0.1482,0.1379,20150106_040507_KOWC_20,KOWC,Kowai,-43.32146,171.85485,0.0,-43.06441498,171.2897644,0.1797,0.001797,0.002,1,#989898
169,169,9,2015-01-06,04:04:57,2015p013973,M,4.83,5.0,,60,15.5,9.8,9.0,0.1582,0.0995,0.0922,20150106_040508_SPRS_20,SPRS,Springfield Volunteer Fire Station,-43.3368,171.93008,9999.0,-43.06441498,171.2897644,0.1582,0.001582,0.002,1,#989898
170,170,10,2015-01-06,04:04:57,2015p013973,M,4.83,5.0,,60,19.8,33.9,34.2,0.202,0.3457,0.3487,20150106_040509_HAFS_20,HAFS,Harihari Fire Station,-43.148911663,170.556061443,0.0,-43.06441498,171.2897644,0.3487,0.003487,0.002 - 0.05,2,#eff3ff
171,171,11,2015-01-06,04:04:57,2015p013973,M,4.83,5.0,,61,18.3,20.3,22.0,0.1869,0.2073,0.224,20150106_040510_ARPS_20,ARPS,Arnold River Power Station,-42.523958469,171.407865584,0.0,-43.06441498,171.2897644,0.224,0.0022400000000000002,0.002 - 0.05,2,#eff3ff
172,172,12,2015-01-06,04:04:57,2015p013973,M,4.83,5.0,,63,10.4,12.9,18.9,0.106,0.1317,0.193,20150106_040510_MTHS_20,MTHS,Methven North,-43.563194,171.666362,410.0,-43.06441498,171.2897644,0.193,0.00193,0.002,1,#989898
173,173,13,2015-01-06,04:04:57,2015p013973,M,4.83,5.0,,64,11.4,21.4,26.5,0.1164,0.2183,0.2701,20150106_040509_WCSS_20,WCSS,Whitecliffs,-43.45775,171.86346,0.0,-43.06441498,171.2897644,0.2701,0.0027010000000000003,0.002 - 0.05,2,#eff3ff
174,174,14,2015-01-06,04:04:57,2015p013973,M,4.83,5.0,,67,12.8,9.6,8.2,0.1309,0.098,0.0838,20150106_040510_OXZ_20,OXZ,Oxford,-43.3259,172.0383,360.0,-43.06441498,171.2897644,0.1309,0.0013089999999999998,0.002,1,#989898
175,175,15,2015-01-06,04:04:57,2015p013973,M,4.83,5.0,,79,9.9,21.9,19.4,0.1007,0.223,0.1979,20150106_040512_WHFS_20,WHFS,Whataroa Fire Station,-43.261164,170.359029,60.0,-43.06441498,171.2897644,0.223,0.00223,0.002 - 0.05,2,#eff3ff
176,176,16,2015-01-06,04:04:57,2015p013973,M,4.83,5.0,,83,14.8,27.3,36.3,0.1513,0.2782,0.3698,20150106_040511_WHAS_20,WHAS,Gaunt Creek,-43.314319211,170.326847608,198.0,-43.06441498,171.2897644,0.3698,0.0036980000000000003,0.002 - 0.05,2,#eff3ff
177,177,17,2015-01-06,04:04:57,2015p013973,M,4.83,5.0,,85,12.6,6.6,8.8,0.1289,0.0669,0.0901,20150106_040514_MAYC_20,MAYC,Mayfield School,-43.82306143,171.421709104,258.0,-43.06441498,171.2897644,0.1289,0.0012889999999999998,0.002,1,#989898
178,178,18,2015-01-06,04:04:57,2015p013973,M,4.83,5.0,,86,3.3,3.9,4.9,0.0333,0.04,0.0503,20150106_040523_LTZ_20,LTZ,Lake Taylor Station,-42.781667157,172.27103538,648.0,-43.06441498,171.2897644,0.0503,0.000503,0.002,1,#989898
179,179,19,2015-01-06,04:04:57,2015p013973,M,4.83,5.0,,88,7.9,3.2,3.4,0.0805,0.0326,0.035,20150106_040514_SMHS_20,SMHS,Summerhill,-43.26216,172.33463,181.0,-43.06441498,171.2897644,0.0805,0.000805,0.002,1,#989898
180,180,20,2015-01-06,04:04:57,2015p013973,M,4.83,5.0,,100,6.6,8.1,6.3,0.0671,0.0823,0.0638,20150106_040516_DSLC_20,DSLC,Dunsandel School,-43.667499474,172.19792004,68.0,-43.06441498,171.2897644,0.0823,0.000823,0.002,1,#989898
181,181,21,2015-01-06,04:04:57,2015p013973,M,4.83,5.0,,106,2.9,2.1,2.7,0.0291,0.0218,0.0271,20150106_040517_ROLC_20,ROLC,Rolleston School,-43.592818023,172.381092806,0.0,-43.06441498,171.2897644,0.0291,0.000291,0.002,1,#989898
182,182,22,2015-01-06,04:04:57,2015p013973,M,4.83,5.0,,113,6.1,13.0,8.1,0.0622,0.1327,0.0825,20150106_040535_GLWS_20,GLWS,Glyn Wye,-42.59417315,172.511049373,445.0,-43.06441498,171.2897644,0.1327,0.001327,0.002,1,#989898
183,183,23,2015-01-06,04:04:57,2015p013973,M,4.83,5.0,,116,3.8,6.0,9.5,0.0389,0.0616,0.0965,20150106_040519_WAKC_20,WAKC,Waikari,-42.963102826,172.705240104,219.0,-43.06441498,171.2897644,0.0965,0.000965,0.002,1,#989898
184,184,24,2015-01-06,04:04:57,2015p013973,M,4.83,5.0,,117,4.1,4.7,4.2,0.0415,0.0476,0.0427,20150106_040521_KPOC_20,KPOC,Kaiapoi North School,-43.376463195,172.66376756,0.0,-43.06441498,171.2897644,0.0476,0.000476,0.002,1,#989898
185,185,25,2015-01-06,04:04:57,2015p013973,M,4.83,5.0,,118,7.2,5.7,5.1,0.0729,0.0586,0.0515,20150106_040520_SACS_20,SACS,St Andrews College Christchurch,-43.50674,172.61619,0.0,-43.06441498,171.2897644,0.0729,0.000729,0.002,1,#989898
186,186,26,2015-01-06,04:04:57,2015p013973,M,4.83,5.0,,119,4.9,7.4,10.4,0.05,0.0754,0.1061,20150106_040519_HHSS_20,HHSS,Hillmorton High School,-43.5575,172.5928,0.0,-43.06441498,171.2897644,0.1061,0.001061,0.002,1,#989898
187,187,27,2015-01-06,04:04:57,2015p013973,M,4.83,5.0,,120,16.6,7.0,8.7,0.1694,0.0716,0.0883,20150106_040520_MORS_20,MORS,"Moorhouse Ave, Christchurch",-43.5395,172.6214,0.0,-43.06441498,171.2897644,0.1694,0.001694,0.002,1,#989898
188,188,28,2015-01-06,04:04:57,2015p013973,M,4.83,5.0,,122,4.2,11.4,12.4,0.043,0.1166,0.126,20150106_040537_MCNS_20,MCNS,Mount Cook Annex,-43.73645,170.0972,740.0,-43.06441498,171.2897644,0.126,0.00126,0.002,1,#989898
189,189,29,2015-01-06,04:04:57,2015p013973,M,4.83,5.0,,124,4.6,5.5,5.8,0.0465,0.0559,0.0596,20150106_040520_OPWS_20,OPWS,Opawa School,-43.55619,172.66429,0.0,-43.06441498,171.2897644,0.0596,0.000596,0.002,1,#989898
190,190,30,2015-01-06,04:04:57,2015p013973,M,4.83,5.0,,125,2.2,2.6,3.3,0.0226,0.0269,0.0337,20150106_040520_HUNS_20,HUNS,Huntsbury,-43.57937,172.65723,207.0,-43.06441498,171.2897644,0.0337,0.000337,0.002,1,#989898
191,191,31,2015-01-06,04:04:57,2015p013973,M,4.83,5.0,,127,4.0,8.0,9.1,0.0408,0.0814,0.0926,20150106_040520_GOVS_20,GOVS,Living Springs Camp Governors Bay,-43.652421,172.635725,163.0,-43.06441498,171.2897644,0.0926,0.0009260000000000001,0.002,1,#989898
192,192,32,2015-01-06,04:04:57,2015p013973,M,4.83,5.0,,132,3.3,2.4,3.1,0.0338,0.0244,0.032,20150106_040521_SUMS_20,SUMS,Sumner,-43.56921,172.75681,9.0,-43.06441498,171.2897644,0.0338,0.000338,0.002,1,#989898
193,193,33,2015-01-06,04:04:57,2015p013973,M,4.83,5.0,,132,3.9,5.7,6.3,0.0401,0.0582,0.0646,20150106_040520_DHSS_20,DHSS,Diamond Harbour School,-43.63026,172.72725,97.0,-43.06441498,171.2897644,0.0646,0.0006460000000000001,0.002,1,#989898
194,194,34,2015-01-06,04:04:57,2015p013973,M,4.83,5.0,,148,9.4,23.9,21.0,0.0956,0.2434,0.2138,20150106_040543_WBCS_20,WBCS,Westport Buller District Council,-41.755660519,171.599811806,10.0,-43.06441498,171.2897644,0.2434,0.002434,0.002 - 0.05,2,#eff3ff
195,195,35,2015-01-06,04:04:57,2015p013973,M,4.83,5.0,,148,3.1,3.7,2.5,0.032,0.0373,0.0257,20150106_040523_CVZ_20,CVZ,Cave,-44.38318,171.00616,495.0,-43.06441498,171.2897644,0.0373,0.000373,0.002,1,#989898
196,196,36,2015-01-06,04:04:57,2015p013973,M,4.83,5.0,,153,7.4,13.9,8.1,0.0758,0.1422,0.0826,20150106_040523_DSZ_20,DSZ,Denniston North,-41.744960821,171.804614445,650.0,-43.06441498,171.2897644,0.1422,0.0014219999999999999,0.002,1,#989898
197,197,37,2015-01-06,04:04:57,2015p013973,M,4.83,5.0,,159,3.3,3.7,2.9,0.0338,0.0373,0.0299,20150106_040525_AKSS_20,AKSS,Akaroa School,-43.81091,172.96349,13.0,-43.06441498,171.2897644,0.0373,0.000373,0.002,1,#989898
198,198,38,2015-01-06,04:04:57,2015p013973,M,4.83,5.0,,203,3.3,7.6,11.1,0.0334,0.0779,0.113,20150106_040559_HDWS_20,HDWS,Haast DOC Workshop,-43.883006138,169.044147881,20.0,-43.06441498,171.2897644,0.113,0.00113,0.002,1,#989898
199,199,39,2015-01-06,04:04:57,2015p013973,M,4.83,5.0,,236,3.9,5.9,7.6,0.0395,0.0602,0.0778,20150106_040539_NSBS_21,NSBS,Neil's Beach Westland,-43.99786,168.660873,8.0,-43.06441498,171.2897644,0.0778,0.0007779999999999999,0.002,1,#989898
200,200,0,2015-01-12,05:12:43,2015p030316,M,4.36,12.9,,17,83.3,369.2,250.2,0.8498,3.7651,2.5518,20150112_051248_WDPS_20,WDPS,Woodville Police Station,-40.338218939,175.869801664,90.0,-40.3783052,176.0625646,3.7651,0.037651,0.002 - 0.05,2,#eff3ff
201,201,1,2015-01-12,05:12:43,2015p030316,M,4.36,12.9,,21,21.6,36.3,74.2,0.22,0.3702,0.7567,20150112_051253_WBFS_20,WBFS,Weber Fire Station,-40.400881282,176.311146962,130.0,-40.3783052,176.0625646,0.7567,0.007567000000000001,0.002 - 0.05,2,#eff3ff
202,202,2,2015-01-12,05:12:43,2015p030316,M,4.36,12.9,,33,75.3,108.9,117.0,0.7676,1.1108,1.1936,20150112_051251_TRMS_20,TRMS,Tiraumea,-40.671276,175.990997,260.0,-40.3783052,176.0625646,1.1936,0.011936,0.002 - 0.05,2,#eff3ff
203,203,3,2015-01-12,05:12:43,2015p030316,M,4.36,12.9,,37,21.8,45.6,51.3,0.2221,0.4652,0.5235,20150112_051251_TSZ_20,TSZ,Takapari Road,-40.058553101,175.961123866,531.0,-40.3783052,176.0625646,0.5235,0.005235,0.002 - 0.05,2,#eff3ff
204,204,4,2015-01-12,05:12:43,2015p030316,M,4.36,12.9,,39,43.6,40.4,45.1,0.4451,0.4125,0.4597,20150112_051252_PNBS_20,PNBS,Palmerston North Boys High School,-40.348948583,175.607578339,40.0,-40.3783052,176.0625646,0.4597,0.004597,0.002 - 0.05,2,#eff3ff
205,205,5,2015-01-12,05:12:43,2015p030316,M,4.36,12.9,,40,52.7,53.2,42.7,0.5373,0.5428,0.4357,20150112_051252_PNMS_20,PNMS,Monrad Intermediate School,-40.36286,175.59311,0.0,-40.3783052,176.0625646,0.5428,0.005428,0.002 - 0.05,2,#eff3ff
206,206,6,2015-01-12,05:12:43,2015p030316,M,4.36,12.9,,45,19.4,29.2,25.9,0.1974,0.2974,0.2636,20150112_051300_FAHS_20,FAHS,Feilding Agricultural High School,-40.213535565,175.57304843,85.0,-40.3783052,176.0625646,0.2974,0.002974,0.002 - 0.05,2,#eff3ff
207,207,7,2015-01-12,05:12:43,2015p030316,M,4.36,12.9,,47,7.8,14.2,10.2,0.0792,0.1452,0.1043,20150112_051253_PGFS_20,PGFS,Porangahau Fire Station,-40.302199783,176.611751099,15.0,-40.3783052,176.0625646,0.1452,0.001452,0.002,1,#989898
208,208,8,2015-01-12,05:12:43,2015p030316,M,4.36,12.9,,52,21.3,16.9,19.3,0.2176,0.1724,0.1967,20150112_051253_MRZ_20,MRZ,Mangatainoka River,-40.66054537,175.578526763,286.0,-40.3783052,176.0625646,0.2176,0.002176,0.002 - 0.05,2,#eff3ff
209,209,9,2015-01-12,05:12:43,2015p030316,M,4.36,12.9,,59,9.8,24.3,27.4,0.0999,0.2476,0.2791,20150112_051257_CPFS_20,CPFS,Castlepoint Fire Station,-40.898762125,176.220963947,9.0,-40.3783052,176.0625646,0.2791,0.002791,0.002 - 0.05,2,#eff3ff
210,210,10,2015-01-12,05:12:43,2015p030316,M,4.36,12.9,,66,6.0,6.6,8.9,0.0613,0.0674,0.0908,20150112_051256_WPWS_20,WPWS,Waipawa District Council,-39.943862017,176.584322066,140.0,-40.3783052,176.0625646,0.0908,0.0009080000000000001,0.002,1,#989898
211,211,11,2015-01-12,05:12:43,2015p030316,M,4.36,12.9,,67,8.3,22.0,15.5,0.085,0.2245,0.1585,20150112_051257_MNGS_20,MNGS,Mangaweka School,-39.80778,175.79083,324.0,-40.3783052,176.0625646,0.2245,0.002245,0.002 - 0.05,2,#eff3ff
212,212,12,2015-01-12,05:12:43,2015p030316,M,4.36,12.9,,72,17.9,14.1,13.2,0.1826,0.1437,0.1348,20150112_051258_FXBS_20,FXBS,Foxton Beach School,-40.46136017,175.22603312,0.0,-40.3783052,176.0625646,0.1826,0.0018260000000000001,0.002,1,#989898
213,213,13,2015-01-12,05:12:43,2015p030316,M,4.36,12.9,,73,3.3,9.3,7.2,0.0332,0.0943,0.0735,20150112_051300_WRCS_20,WRCS,Masterton Wairarapa College,-40.950352011,175.647816501,120.0,-40.3783052,176.0625646,0.0943,0.0009429999999999999,0.002,1,#989898
214,214,14,2015-01-12,05:12:43,2015p030316,M,4.36,12.9,,73,10.6,16.8,27.2,0.108,0.1718,0.2772,20150112_051306_UTKS_20,UTKS,Utiku Landslide Borehole 2,-39.74637494,175.837768869,365.874,-40.3783052,176.0625646,0.2772,0.002772,0.002 - 0.05,2,#eff3ff
215,215,15,2015-01-12,05:12:43,2015p030316,M,4.36,12.9,,81,8.9,5.8,5.7,0.0906,0.0591,0.0579,20150112_051258_THHS_20,THHS,Taihape Hospital,-39.67995471,175.795593232,0.0,-40.3783052,176.0625646,0.0906,0.000906,0.002,1,#989898
216,216,16,2015-01-12,05:12:43,2015p030316,M,4.36,12.9,,100,8.9,11.6,9.2,0.0904,0.1187,0.0941,20150112_051305_WCDS_20,WCDS,Wanganui Civil Defence Store,-39.933638357,175.047992977,9.0,-40.3783052,176.0625646,0.1187,0.001187,0.002,1,#989898
217,217,17,2015-01-12,05:12:43,2015p030316,M,4.36,12.9,,105,5.4,7.9,9.6,0.0546,0.081,0.0978,20150112_051302_KIRS_20,KIRS,Kaitoke Kiwi Ranch,-41.076883922,175.230010715,0.0,-40.3783052,176.0625646,0.0978,0.000978,0.002,1,#989898
218,218,18,2015-01-12,05:12:43,2015p030316,M,4.36,12.9,,105,3.3,9.9,7.7,0.0333,0.1005,0.0781,20150112_051303_MAVS_20,MAVS,Martinborough Wines Vineyard,-41.210857507,175.461483109,33.0,-40.3783052,176.0625646,0.1005,0.001005,0.002,1,#989898
219,219,19,2015-01-12,05:12:43,2015p030316,M,4.36,12.9,,107,5.9,12.2,14.3,0.0601,0.1243,0.1456,20150112_051317_PAPS_20,PAPS,Paraparaumu Primary School,-40.914319724,175.004958529,9.0,-40.3783052,176.0625646,0.1456,0.001456,0.002,1,#989898
220,220,20,2015-01-12,05:12:43,2015p030316,M,4.36,12.9,,115,8.7,18.1,16.8,0.0892,0.1843,0.1716,20150112_051305_WAZ_20,WAZ,Wanganui,-39.754644424,174.985532904,382.0,-40.3783052,176.0625646,0.1843,0.001843,0.002,1,#989898
221,221,21,2015-01-12,05:12:43,2015p030316,M,4.36,12.9,,115,9.9,13.6,9.5,0.1009,0.1387,0.0972,20150112_051304_TOTS_20,TOTS,Totara Park Upper Hutt,-41.10492,175.08539,0.0,-40.3783052,176.0625646,0.1387,0.001387,0.002,1,#989898
222,222,22,2015-01-12,05:12:43,2015p030316,M,4.36,12.9,,118,4.7,4.5,4.4,0.0477,0.046,0.0453,20150112_051304_UHSS_20,UHSS,Upper Hutt Primary School,-41.12638,175.06509,0.0,-40.3783052,176.0625646,0.0477,0.000477,0.002,1,#989898
223,223,23,2015-01-12,05:12:43,2015p030316,M,4.36,12.9,,125,3.7,4.1,4.1,0.0378,0.0417,0.0418,20150112_051305_HSSS_20,HSSS,Lower Hutt Haywards Substation,-41.151935054,174.981477266,0.0,-40.3783052,176.0625646,0.0418,0.00041799999999999997,0.002,1,#989898
224,224,24,2015-01-12,05:12:43,2015p030316,M,4.36,12.9,,129,9.4,4.4,6.6,0.0956,0.0451,0.0673,20150112_051305_TAIS_20,TAIS,Taita Central School,-41.18038403,174.954771915,0.0,-40.3783052,176.0625646,0.0956,0.000956,0.002,1,#989898
225,225,25,2015-01-12,05:12:43,2015p030316,M,4.36,12.9,,131,4.8,15.9,10.5,0.0494,0.1617,0.1072,20150112_051306_NBSS_20,NBSS,St Bernadette's School,-41.202272,174.953755,0.0,-40.3783052,176.0625646,0.1617,0.0016170000000000002,0.002,1,#989898
226,226,26,2015-01-12,05:12:43,2015p030316,M,4.36,12.9,,132,5.2,5.6,4.2,0.0533,0.0568,0.0428,20150112_051306_BMTS_20,BMTS,Belmont,-41.191372,174.92603,84.0,-40.3783052,176.0625646,0.0568,0.000568,0.002,1,#989898
227,227,27,2015-01-12,05:12:43,2015p030316,M,4.36,12.9,,132,2.9,3.4,3.2,0.0291,0.035,0.0323,20150112_051308_FAIS_20,FAIS,Fairfield,-41.2074,174.9401,9999.0,-40.3783052,176.0625646,0.035,0.00035000000000000005,0.002,1,#989898
228,228,28,2015-01-12,05:12:43,2015p030316,M,4.36,12.9,,133,3.9,5.3,7.2,0.0395,0.0544,0.0738,20150112_051314_LNBS_20,LNBS,Naenae Bowling Club,-41.20498,174.9266,0.0,-40.3783052,176.0625646,0.0738,0.000738,0.002,1,#989898
229,229,29,2015-01-12,05:12:43,2015p030316,M,4.36,12.9,,133,33.4,6.1,10.4,0.341,0.0619,0.1062,20150112_051307_POKS_20,POKS,Katoa Kindergarten,-41.12495,174.83151,0.0,-40.3783052,176.0625646,0.341,0.0034100000000000003,0.002 - 0.05,2,#eff3ff
230,230,30,2015-01-12,05:12:43,2015p030316,M,4.36,12.9,,134,4.2,3.9,5.0,0.0425,0.0394,0.051,20150112_051307_PWES_20,PWES,Porirua West,-41.12746,174.82586,9999.0,-40.3783052,176.0625646,0.051,0.0005099999999999999,0.002,1,#989898
231,231,31,2015-01-12,05:12:43,2015p030316,M,4.36,12.9,,134,6.1,5.6,5.9,0.0624,0.0572,0.0603,20150112_051307_WANS_20,WANS,Wainuiomata Hill,-41.23122,174.93102,367.0,-40.3783052,176.0625646,0.0624,0.000624,0.002,1,#989898
232,232,32,2015-01-12,05:12:43,2015p030316,M,4.36,12.9,,135,2.3,3.6,3.6,0.0233,0.037,0.0363,20150112_051306_INSS_20,INSS,Lower Hutt GNS Nuclear Sciences,-41.233516778,174.921116168,0.0,-40.3783052,176.0625646,0.037,0.00037,0.002,1,#989898
233,233,33,2015-01-12,05:12:43,2015p030316,M,4.36,12.9,,137,7.0,10.2,8.7,0.0713,0.1039,0.089,20150112_051342_PVCS_20,PVCS,Petone Victoria Street,-41.22474608,174.87391737,0.0,-40.3783052,176.0625646,0.1039,0.001039,0.002,1,#989898
234,234,34,2015-01-12,05:12:43,2015p030316,M,4.36,12.9,,138,2.4,3.2,3.8,0.0247,0.0329,0.0391,20150112_051307_PHHS_20,PHHS,Point Howard,-41.25209,174.904297,41.0,-40.3783052,176.0625646,0.0391,0.000391,0.002,1,#989898
235,235,35,2015-01-12,05:12:43,2015p030316,M,4.36,12.9,,138,2.4,3.9,4.0,0.0246,0.0396,0.0405,20150112_051307_PTOS_20,PTOS,Petone Overbridge,-41.222973,174.860302,9999.0,-40.3783052,176.0625646,0.0405,0.00040500000000000003,0.002,1,#989898
236,236,36,2015-01-12,05:12:43,2015p030316,M,4.36,12.9,,140,3.1,4.2,3.8,0.0316,0.0433,0.0389,20150112_051307_SOMS_20,SOMS,Somes Island,-41.25746,174.865,48.0,-40.3783052,176.0625646,0.0433,0.000433,0.002,1,#989898
237,237,37,2015-01-12,05:12:43,2015p030316,M,4.36,12.9,,148,1.4,2.4,3.0,0.0145,0.025,0.0304,20150112_051310_WEL_20,WEL,Wellington,-41.284047578,174.768184021,138.0,-40.3783052,176.0625646,0.0304,0.000304,0.002,1,#989898
238,238,38,2015-01-12,05:12:43,2015p030316,M,4.36,12.9,,149,2.0,2.0,2.8,0.0204,0.0201,0.0281,20150112_051311_MKBS_20,MKBS,Makara Bunker,-41.2259,174.6981,231.0,-40.3783052,176.0625646,0.0281,0.000281,0.002,1,#989898
239,239,39,2015-01-12,05:12:43,2015p030316,M,4.36,12.9,,150,4.0,7.9,4.2,0.0404,0.0804,0.0432,20150112_051312_WNKS_20,WNKS,Wellington Karori Normal School,-41.284817534,174.742053687,0.0,-40.3783052,176.0625646,0.0804,0.000804,0.002,1,#989898
240,240,40,2015-01-12,05:12:43,2015p030316,M,4.36,12.9,,151,3.4,6.5,8.6,0.0345,0.0665,0.0872,20150112_051309_MKVS_20,MKVS,Makara Village,-41.26542095,174.70552447,0.0,-40.3783052,176.0625646,0.0872,0.0008719999999999999,0.002,1,#989898
241,241,0,2015-01-13,11:40:00,2015p033746,M,5.75,82.6,,69,266.2,413.4,319.8,2.7144,4.2154,3.2609,20150113_114017_RRKS_20,RRKS,Rarakau,-46.147433733,167.472523158,59.0,-45.68924267,166.8690533,4.2154,0.042154,0.002 - 0.05,2,#eff3ff
242,242,1,2015-01-13,11:40:00,2015p033746,M,5.75,82.6,,73,44.8,92.2,71.3,0.457,0.9401,0.7273,20150113_114016_TAFS_20,TAFS,Te Anau Fire Station,-45.416673666,167.719111225,0.0,-45.68924267,166.8690533,0.9401,0.009401,0.002 - 0.05,2,#eff3ff
243,243,2,2015-01-13,11:40:00,2015p033746,M,5.75,82.6,,87,50.9,67.0,50.5,0.5185,0.6836,0.5154,20150113_114018_WHZ_20,WHZ,Wether Hill Road,-45.892427899,167.947031165,345.0,-45.68924267,166.8690533,0.6836,0.006836,0.002 - 0.05,2,#eff3ff
244,244,3,2015-01-13,11:40:00,2015p033746,M,5.75,82.6,,104,32.2,63.6,72.2,0.3282,0.648,0.7362,20150113_114020_MLZ_20,MLZ,Mavora Lakes,-45.366543525,168.118406813,594.0,-45.68924267,166.8690533,0.7362,0.007362,0.002 - 0.05,2,#eff3ff
245,245,4,2015-01-13,11:40:00,2015p033746,M,5.75,82.6,,107,36.6,44.2,33.5,0.3727,0.4505,0.3415,20150113_114020_MOSS_20,MOSS,Mossburn School,-45.667802403,168.237836479,303.0,-45.68924267,166.8690533,0.4505,0.004505,0.002 - 0.05,2,#eff3ff
246,246,5,2015-01-13,11:40:00,2015p033746,M,5.75,82.6,,140,22.7,46.4,49.6,0.2319,0.4736,0.5059,20150113_114023_MSZ_20,MSZ,Milford Sound,-44.673333781,167.92639864,55.0,-45.68924267,166.8690533,0.5059,0.005059,0.002 - 0.05,2,#eff3ff
247,247,6,2015-01-13,11:40:00,2015p033746,M,5.75,82.6,,153,50.7,91.1,73.0,0.5171,0.9287,0.7446,20150113_114026_NZAS_20,NZAS,New Zealand Aluminium Smelter,-46.586807,168.378357,13.0,-45.68924267,166.8690533,0.9287,0.009287,0.002 - 0.05,2,#eff3ff
248,248,7,2015-01-13,11:40:00,2015p033746,M,5.75,82.6,,158,191.5,325.4,302.6,1.9523,3.3184,3.086,20150113_114026_QTPS_20,QTPS,Queenstown Police Station,-45.032155912,168.662886073,327.0,-45.68924267,166.8690533,3.3184,0.033184,0.002 - 0.05,2,#eff3ff
249,249,8,2015-01-13,11:40:00,2015p033746,M,5.75,82.6,,167,32.3,35.3,33.6,0.3294,0.36,0.3428,20150113_114047_GORS_20,GORS,Gore District Council,-46.102667058,168.941693118,85.0,-45.68924267,166.8690533,0.36,0.0036,0.002 - 0.05,2,#eff3ff
250,250,9,2015-01-13,11:40:00,2015p033746,M,5.75,82.6,,199,365.3,899.0,472.5,3.7248,9.1668,4.8178,20150113_114031_SYZ_20,SYZ,Scrubby Hill,-46.536890349,169.138823018,52.0,-45.68924267,166.8690533,9.1668,0.091668,0.05 - 0.1,3,#dbdaeb
251,251,10,2015-01-13,11:40:00,2015p033746,M,5.75,82.6,,210,43.2,71.5,99.2,0.4407,0.729,1.0118,20150113_114032_WNPS_20,WNPS,Wanaka National Park Headquarters,-44.694588118,169.142964415,0.0,-45.68924267,166.8690533,1.0118,0.010118,0.002 - 0.05,2,#eff3ff
